{"type":"FeatureCollection","features":[
{"type":"Feature","geometry":{"coordinates":[[[2.36851,48.85573],[2.369,48.85374],[2.3691,48.85331],[2.36911,48.8533],[2.36911,48.8533],[2.36911,48.85327],[2.36913,48.8532],[2.36913,48.85318],[2.36914,48.85316],[2.36913,48.85315],[2.3691,48.85309],[2.36908,48.85304],[2.36908,48.85303],[2.36887,48.85259],[2.36881,48.85245],[2.3688,48.85244],[2.36874,48.8523],[2.36867,48.85216],[2.36864,48.85208],[2.36861,48.85203],[2.36861,48.85203],[2.3686,48.85201],[2.3686,48.852],[2.36857,48.85195],[2.36842,48.85162],[2.36842,48.85161],[2.36839,48.85155],[2.36803,48.85076],[2.36799,48.85068],[2.36731,48.84918],[2.36731,48.84918],[2.36652,48.84741],[2.3665,48.84737],[2.36615,48.84716],[2.36614,48.84715],[2.36612,48.84714],[2.36597,48.84705],[2.36594,48.84704],[2.36569,48.84689],[2.36569,48.84689],[2.36568,48.84688],[2.36565,48.84686],[2.36561,48.84684],[2.36556,48.84681],[2.36555,48.8468],[2.36549,48.84677],[2.36548,48.84677],[2.36538,48.8467],[2.36537,48.8467],[2.36443,48.84614],[2.36249,48.84762],[2.36189,48.84799],[2.36151,48.84823],[2.3608,48.84863],[2.3608,48.84863],[2.35982,48.84918],[2.35969,48.84924],[2.35957,48.84931],[2.35935,48.8494],[2.35917,48.84948],[2.35887,48.84959],[2.35855,48.84971],[2.35833,48.84978],[2.35825,48.8498],[2.35815,48.84984],[2.35806,48.84987],[2.358,48.84989],[2.35565,48.85064],[2.3556,48.85066],[2.35551,48.85069],[2.35535,48.85073],[2.35371,48.85122],[2.35319,48.8513],[2.35252,48.85139],[2.3516,48.85159],[2.35022,48.85195],[2.35004,48.852],[2.34998,48.85202],[2.34991,48.85204],[2.34987,48.85206],[2.34964,48.85214],[2.34938,48.85224],[2.34926,48.85229],[2.34847,48.85261],[2.34695,48.85329],[2.34687,48.85332],[2.34682,48.85334],[2.34479,48.85399],[2.3447,48.85401],[2.34459,48.85405],[2.34459,48.85405],[2.34587,48.85528],[2.3459,48.85531],[2.34598,48.85542],[2.34598,48.85542],[2.3461,48.85559],[2.3468,48.85671],[2.34699,48.85701],[2.34705,48.85708],[2.34718,48.85716],[2.34718,48.85716],[2.3473,48.85722],[2.34752,48.85731],[2.34752,48.85731],[2.34756,48.85735],[2.34821,48.85849],[2.34822,48.85852],[2.34937,48.86058],[2.34945,48.86073],[2.35016,48.86199],[2.35165,48.86165],[2.35334,48.86127],[2.35347,48.86122],[2.35686,48.86008],[2.3569,48.86007],[2.35835,48.85902],[2.35881,48.8587],[2.35932,48.85836],[2.35937,48.85832],[2.3607,48.85769],[2.36175,48.85725],[2.36283,48.8569],[2.3643,48.85646],[2.36445,48.85641],[2.36851,48.85573]]],"type":"Polygon"},"properties":{"surface":1600585.63150251,"perimetre":5420.90843368}},
{"type":"Feature","geometry":{"coordinates":[[[2.36443,48.84614],[2.36484,48.84584],[2.36603,48.84493],[2.36515,48.84443],[2.3651,48.8444],[2.36504,48.84436],[2.36503,48.84435],[2.36495,48.84427],[2.36495,48.84426],[2.36492,48.84423],[2.3649,48.84419],[2.36488,48.84417],[2.36486,48.84412],[2.36485,48.8441],[2.36485,48.84408],[2.36483,48.84405],[2.36479,48.84396],[2.36477,48.84394],[2.3647,48.84384],[2.36463,48.84375],[2.36456,48.84366],[2.3645,48.84358],[2.36211,48.84035],[2.36182,48.83996],[2.36161,48.8399],[2.36141,48.83983],[2.35915,48.83911],[2.3578,48.83868],[2.35695,48.83842],[2.35586,48.83807],[2.35535,48.8379],[2.35272,48.83706],[2.35187,48.8368],[2.35184,48.83679],[2.35182,48.83678],[2.35179,48.83678],[2.35176,48.83678],[2.35176,48.83678],[2.35166,48.83678],[2.34899,48.83709],[2.3472,48.83729],[2.34708,48.83731],[2.347,48.83732],[2.34447,48.83786],[2.34207,48.83836],[2.33974,48.83885],[2.33969,48.83887],[2.33673,48.83965],[2.33676,48.84013],[2.33677,48.84035],[2.33678,48.84055],[2.33679,48.8407],[2.33684,48.8407],[2.3369,48.8407],[2.33694,48.8407],[2.33696,48.84071],[2.33701,48.84072],[2.33707,48.84074],[2.33712,48.84076],[2.33716,48.84079],[2.33719,48.84081],[2.33724,48.84085],[2.33727,48.84088],[2.3373,48.84093],[2.33776,48.84175],[2.33777,48.84175],[2.33818,48.8425],[2.33897,48.84396],[2.34026,48.84628],[2.34026,48.84628],[2.3405,48.84671],[2.34084,48.84734],[2.34084,48.84735],[2.34092,48.84748],[2.34147,48.84837],[2.34265,48.85031],[2.34268,48.85036],[2.34317,48.85139],[2.34383,48.85277],[2.34428,48.85375],[2.34459,48.85405],[2.3447,48.85401],[2.34479,48.85399],[2.34682,48.85334],[2.34687,48.85332],[2.34695,48.85329],[2.34847,48.85261],[2.34926,48.85229],[2.34938,48.85224],[2.34964,48.85214],[2.34987,48.85206],[2.34991,48.85204],[2.34998,48.85202],[2.35004,48.852],[2.35022,48.85195],[2.3516,48.85159],[2.35252,48.85139],[2.35319,48.8513],[2.35371,48.85122],[2.35535,48.85073],[2.35551,48.85069],[2.3556,48.85066],[2.35565,48.85064],[2.358,48.84989],[2.35806,48.84987],[2.35815,48.84984],[2.35825,48.8498],[2.35833,48.84978],[2.35855,48.84971],[2.35887,48.84959],[2.35917,48.84948],[2.35935,48.8494],[2.35957,48.84931],[2.35969,48.84924],[2.35982,48.84918],[2.3608,48.84863],[2.3608,48.84863],[2.36151,48.84823],[2.36189,48.84799],[2.36249,48.84762],[2.36443,48.84614]]],"type":"Polygon"},"properties":{"surface":2539374.62284532,"perimetre":6239.19539614}},
{"type":"Feature","geometry":{"coordinates":[[[2.27427,48.87837],[2.27749,48.87796],[2.27771,48.87803],[2.27792,48.87809],[2.27808,48.87814],[2.27836,48.87822],[2.27861,48.8783],[2.27918,48.87847],[2.27948,48.87856],[2.27948,48.87856],[2.27956,48.87858],[2.27973,48.87863],[2.27974,48.87863],[2.27978,48.87865],[2.2798,48.87865],[2.28132,48.87816],[2.28335,48.87749],[2.2834,48.87748],[2.28378,48.87735],[2.2838,48.87735],[2.28386,48.87733],[2.28393,48.87731],[2.28396,48.8773],[2.28407,48.87726],[2.28429,48.87719],[2.28719,48.87628],[2.288,48.87602],[2.2892,48.87563],[2.28997,48.87539],[2.29049,48.87522],[2.293,48.87442],[2.29402,48.8741],[2.29455,48.87393],[2.29493,48.87381],[2.29504,48.87378],[2.29505,48.87376],[2.29506,48.87376],[2.29506,48.87376],[2.29506,48.87376],[2.29506,48.87376],[2.29506,48.87376],[2.29506,48.87376],[2.29506,48.87376],[2.29506,48.87376],[2.29506,48.87376],[2.29506,48.87375],[2.29506,48.87375],[2.29506,48.87375],[2.29506,48.87375],[2.29506,48.87375],[2.29506,48.87375],[2.29506,48.87375],[2.29506,48.87375],[2.29506,48.87375],[2.29506,48.87375],[2.29507,48.87375],[2.29507,48.87375],[2.29507,48.87375],[2.29507,48.87375],[2.29507,48.87375],[2.29507,48.87375],[2.29507,48.87374],[2.29507,48.87374],[2.29507,48.87374],[2.29507,48.87374],[2.29507,48.87374],[2.29507,48.87374],[2.29507,48.87374],[2.29507,48.87374],[2.29507,48.87374],[2.29507,48.87374],[2.29507,48.87374],[2.29507,48.87374],[2.29507,48.87374],[2.29508,48.87374],[2.29508,48.87374],[2.29508,48.87374],[2.29508,48.87373],[2.29508,48.87373],[2.29508,48.87373],[2.29508,48.87373],[2.29508,48.87373],[2.29508,48.87373],[2.29508,48.87373],[2.29508,48.87373],[2.29508,48.87373],[2.29508,48.87373],[2.29508,48.87373],[2.29508,48.87373],[2.29508,48.87373],[2.29508,48.87373],[2.29508,48.87373],[2.29508,48.87373],[2.29509,48.87372],[2.29509,48.87372],[2.29509,48.87372],[2.29509,48.87372],[2.29509,48.87372],[2.29509,48.87372],[2.29509,48.87372],[2.29509,48.87372],[2.29509,48.87372],[2.29509,48.87372],[2.29509,48.87372],[2.29509,48.87372],[2.29509,48.87372],[2.29509,48.87372],[2.29509,48.87372],[2.29509,48.87372],[2.29509,48.87371],[2.29509,48.87371],[2.2951,48.87371],[2.2951,48.87371],[2.2951,48.87371],[2.2951,48.87371],[2.2951,48.87371],[2.2951,48.87371],[2.2951,48.87371],[2.2951,48.87371],[2.2951,48.87371],[2.2951,48.87371],[2.2951,48.87371],[2.2951,48.87371],[2.2951,48.87371],[2.2951,48.87371],[2.2951,48.8737],[2.2951,48.8737],[2.2951,48.8737],[2.2951,48.8737],[2.2951,48.8737],[2.29511,48.8737],[2.29511,48.8737],[2.29511,48.8737],[2.29511,48.8737],[2.29511,48.8737],[2.29511,48.8737],[2.29511,48.8737],[2.29511,48.8737],[2.29511,48.8737],[2.29511,48.8737],[2.29511,48.8737],[2.29511,48.87369],[2.29511,48.87369],[2.29511,48.87369],[2.29511,48.87369],[2.29511,48.87369],[2.29511,48.87369],[2.29512,48.87369],[2.29512,48.87369],[2.29512,48.87369],[2.29512,48.87369],[2.29513,48.87367],[2.29531,48.87347],[2.29531,48.87347],[2.29534,48.87343],[2.29617,48.87248],[2.29749,48.87097],[2.29749,48.87097],[2.29753,48.87093],[2.29824,48.8697],[2.2983,48.86961],[2.29891,48.86856],[2.29925,48.86745],[2.29934,48.86714],[2.2999,48.86533],[2.29991,48.86532],[2.29996,48.86527],[2.3002,48.86506],[2.30152,48.86452],[2.30159,48.86347],[2.30112,48.86345],[2.30107,48.86345],[2.30048,48.86342],[2.30007,48.86338],[2.29979,48.86335],[2.29979,48.86335],[2.29978,48.86335],[2.29924,48.86327],[2.29923,48.86327],[2.29923,48.86327],[2.29895,48.86322],[2.29867,48.86316],[2.29857,48.86313],[2.29792,48.86298],[2.29754,48.86288],[2.29744,48.86285],[2.29743,48.86285],[2.29724,48.86279],[2.29705,48.86273],[2.29684,48.86267],[2.29678,48.86265],[2.29675,48.86263],[2.29662,48.86259],[2.29657,48.86258],[2.29652,48.86256],[2.29638,48.86251],[2.29637,48.86251],[2.29622,48.86245],[2.29615,48.86242],[2.29601,48.86237],[2.29589,48.86231],[2.29556,48.86217],[2.29543,48.86211],[2.29509,48.86196],[2.29466,48.86176],[2.29432,48.86159],[2.2942,48.86152],[2.29392,48.86133],[2.29361,48.86112],[2.29268,48.86044],[2.29195,48.85991],[2.29178,48.85978],[2.29156,48.85961],[2.29156,48.85961],[2.29125,48.85935],[2.28984,48.85824],[2.28913,48.85766],[2.28906,48.85759],[2.28901,48.85754],[2.28894,48.85746],[2.28891,48.85742],[2.28887,48.85736],[2.28885,48.85734],[2.28873,48.85715],[2.28859,48.85694],[2.28848,48.85676],[2.28834,48.85653],[2.28811,48.85612],[2.28798,48.85602],[2.28791,48.85598],[2.28765,48.85579],[2.28759,48.85575],[2.28757,48.85573],[2.28754,48.85571],[2.28751,48.85569],[2.28751,48.85569],[2.28744,48.85564],[2.28741,48.85562],[2.28599,48.85462],[2.28591,48.85456],[2.28591,48.85456],[2.28576,48.85445],[2.28482,48.85377],[2.28436,48.85345],[2.28369,48.85298],[2.283,48.85249],[2.28284,48.85238],[2.28279,48.85235],[2.28276,48.85233],[2.28275,48.85232],[2.28269,48.85227],[2.28239,48.85206],[2.28088,48.851],[2.2801,48.85046],[2.27996,48.85036],[2.27982,48.85025],[2.27969,48.85016],[2.27955,48.85006],[2.27916,48.84977],[2.27799,48.84884],[2.27699,48.84805],[2.27571,48.84696],[2.27539,48.84662],[2.2752,48.84643],[2.27415,48.84534],[2.27344,48.84461],[2.27339,48.84456],[2.27336,48.84454],[2.27309,48.84426],[2.27225,48.84341],[2.27157,48.84273],[2.27095,48.84208],[2.26978,48.84087],[2.2696,48.84068],[2.26923,48.84029],[2.26842,48.83941],[2.2683,48.83929],[2.26759,48.83852],[2.26517,48.83617],[2.26371,48.83466],[2.26296,48.8339],[2.26296,48.8339],[2.26278,48.83392],[2.26145,48.83407],[2.26139,48.83408],[2.26135,48.83408],[2.26116,48.83411],[2.25698,48.83459],[2.25698,48.83459],[2.25674,48.83462],[2.25627,48.83468],[2.25626,48.83468],[2.25515,48.83481],[2.2542,48.83592],[2.25364,48.83658],[2.25364,48.83658],[2.25363,48.83659],[2.25358,48.83665],[2.25301,48.83732],[2.25231,48.83814],[2.25165,48.83891],[2.25162,48.83921],[2.25127,48.84251],[2.25122,48.8429],[2.25172,48.84392],[2.25219,48.84486],[2.25219,48.84487],[2.25245,48.84539],[2.25254,48.84557],[2.25254,48.84558],[2.25254,48.84558],[2.25068,48.84563],[2.25066,48.84563],[2.25054,48.84566],[2.25042,48.84569],[2.25036,48.8457],[2.24812,48.84628],[2.24779,48.84637],[2.24764,48.8464],[2.24649,48.8467],[2.24623,48.84676],[2.24438,48.84724],[2.24298,48.8476],[2.24267,48.84768],[2.24247,48.84773],[2.24246,48.84773],[2.24243,48.84777],[2.24228,48.8479],[2.24205,48.8481],[2.2419,48.84823],[2.24175,48.84836],[2.24174,48.84837],[2.2415,48.84857],[2.24148,48.84859],[2.24145,48.84862],[2.24139,48.84867],[2.24034,48.84957],[2.2403,48.84961],[2.24026,48.84964],[2.24022,48.84967],[2.24019,48.84969],[2.24018,48.8497],[2.24014,48.84973],[2.24013,48.84974],[2.2401,48.84976],[2.24008,48.84978],[2.24005,48.84979],[2.24002,48.84981],[2.24,48.84983],[2.23997,48.84984],[2.23994,48.84986],[2.23991,48.84987],[2.23985,48.84991],[2.2398,48.84993],[2.23976,48.84995],[2.23972,48.84997],[2.23967,48.84999],[2.23963,48.85001],[2.2396,48.85002],[2.23957,48.85003],[2.23955,48.85004],[2.23953,48.85005],[2.2395,48.85006],[2.23948,48.85006],[2.23946,48.85007],[2.23943,48.85008],[2.23941,48.85008],[2.23939,48.85009],[2.23936,48.8501],[2.23934,48.8501],[2.23931,48.85011],[2.23907,48.85016],[2.239,48.85018],[2.23811,48.85037],[2.23811,48.85038],[2.23805,48.85039],[2.23793,48.85042],[2.23781,48.85044],[2.2378,48.85044],[2.23779,48.85045],[2.23766,48.85047],[2.23753,48.8505],[2.23746,48.85052],[2.22772,48.85266],[2.2266,48.85291],[2.22659,48.85291],[2.22658,48.85291],[2.22654,48.85292],[2.22653,48.85292],[2.22614,48.85301],[2.22556,48.85314],[2.22417,48.85344],[2.22415,48.85344],[2.22408,48.85396],[2.22414,48.85505],[2.22433,48.85595],[2.22465,48.85686],[2.22498,48.85782],[2.22541,48.85888],[2.22564,48.85944],[2.22575,48.85971],[2.22641,48.86096],[2.22663,48.86132],[2.22683,48.86165],[2.22729,48.86257],[2.22825,48.86516],[2.22865,48.86576],[2.22866,48.86577],[2.22959,48.86685],[2.22988,48.86718],[2.22994,48.86725],[2.23062,48.86799],[2.23193,48.86935],[2.23212,48.86955],[2.23253,48.86967],[2.23557,48.87052],[2.23581,48.87059],[2.23592,48.87062],[2.23739,48.87102],[2.23829,48.87124],[2.23841,48.87127],[2.2394,48.8715],[2.23949,48.87152],[2.23956,48.87154],[2.23963,48.87156],[2.2397,48.87158],[2.23977,48.8716],[2.23984,48.87163],[2.23991,48.87165],[2.23998,48.87167],[2.24005,48.8717],[2.24008,48.87171],[2.24012,48.87172],[2.24016,48.87174],[2.24019,48.87176],[2.24023,48.87177],[2.24026,48.87179],[2.2403,48.87181],[2.24039,48.87186],[2.24045,48.87188],[2.2405,48.87191],[2.24055,48.87194],[2.24059,48.87197],[2.24064,48.872],[2.24082,48.87212],[2.24091,48.87218],[2.241,48.87224],[2.24109,48.87231],[2.24118,48.87237],[2.24127,48.87244],[2.24206,48.87308],[2.24318,48.87398],[2.24321,48.874],[2.24335,48.87412],[2.24562,48.87636],[2.24957,48.87538],[2.25394,48.8743],[2.25482,48.87408],[2.25482,48.87408],[2.25506,48.87415],[2.25506,48.87415],[2.25506,48.87415],[2.25521,48.8742],[2.25541,48.87426],[2.25667,48.87672],[2.2567,48.87677],[2.25841,48.8801],[2.25841,48.8801],[2.25841,48.8801],[2.25845,48.88012],[2.25883,48.88026],[2.25887,48.88028],[2.25888,48.88028],[2.26155,48.87995],[2.26809,48.87914],[2.2704,48.87885],[2.27043,48.87884],[2.27043,48.87884],[2.2705,48.87883],[2.27092,48.87878],[2.27098,48.87877],[2.27098,48.87877],[2.27427,48.87837]]],"type":"Polygon"},"properties":{"surface":16372542.1289739,"perimetre":17416.1096565}},
{"type":"Feature","geometry":{"coordinates":[[[2.38943,48.90122],[2.39014,48.90108],[2.39071,48.90098],[2.39071,48.90098],[2.39096,48.90084],[2.39264,48.89989],[2.39351,48.8994],[2.3936,48.89935],[2.39362,48.89934],[2.39552,48.89826],[2.39553,48.89824],[2.39572,48.89793],[2.39594,48.89759],[2.39597,48.89754],[2.39694,48.89595],[2.39777,48.89461],[2.39804,48.89356],[2.39862,48.89135],[2.39881,48.89033],[2.39895,48.88954],[2.39896,48.88951],[2.3991,48.8887],[2.39911,48.88869],[2.39914,48.88848],[2.39916,48.8884],[2.39919,48.88823],[2.3992,48.88767],[2.3992,48.88758],[2.3992,48.8869],[2.3992,48.88653],[2.39921,48.88635],[2.39921,48.88629],[2.39921,48.88624],[2.39921,48.88612],[2.39921,48.88598],[2.39921,48.8859],[2.39921,48.88586],[2.39921,48.88549],[2.39921,48.88542],[2.39922,48.88541],[2.39925,48.88535],[2.39947,48.88496],[2.39949,48.88492],[2.3995,48.8849],[2.39955,48.88481],[2.39977,48.88441],[2.39983,48.88431],[2.39993,48.88413],[2.39993,48.88413],[2.40011,48.88381],[2.40011,48.88381],[2.40011,48.88381],[2.40071,48.88329],[2.401,48.88304],[2.40104,48.88301],[2.40126,48.88282],[2.40144,48.88267],[2.40149,48.88262],[2.40149,48.88262],[2.40149,48.88262],[2.40162,48.88256],[2.40242,48.8822],[2.4025,48.88217],[2.40261,48.88212],[2.40268,48.88209],[2.4034,48.88177],[2.40345,48.88175],[2.40349,48.88173],[2.40372,48.88163],[2.40463,48.88123],[2.40592,48.88096],[2.40592,48.88096],[2.40629,48.88089],[2.4067,48.8808],[2.40695,48.88075],[2.40717,48.88071],[2.40743,48.88065],[2.40764,48.88061],[2.40822,48.88049],[2.40834,48.88047],[2.4085,48.88044],[2.40934,48.88026],[2.4094,48.88019],[2.40995,48.87952],[2.41068,48.87861],[2.41077,48.8785],[2.41084,48.87842],[2.41084,48.87842],[2.41082,48.87842],[2.40982,48.87813],[2.40969,48.87809],[2.40944,48.87802],[2.40938,48.87801],[2.40934,48.87799],[2.40924,48.87796],[2.40921,48.87796],[2.40891,48.87787],[2.4085,48.87775],[2.40848,48.87775],[2.40846,48.87774],[2.4084,48.87772],[2.40837,48.87772],[2.40808,48.87763],[2.4072,48.87732],[2.40696,48.87723],[2.40694,48.87722],[2.40668,48.87718],[2.40646,48.87714],[2.40597,48.87701],[2.40257,48.87601],[2.40253,48.876],[2.39933,48.87557],[2.39896,48.87549],[2.39893,48.87548],[2.39794,48.87545],[2.3973,48.87543],[2.39533,48.87525],[2.39353,48.87535],[2.39305,48.87537],[2.39197,48.87545],[2.39196,48.87545],[2.39177,48.87546],[2.39177,48.87546],[2.3904,48.87545],[2.38978,48.87534],[2.38951,48.87521],[2.38898,48.87497],[2.38855,48.87479],[2.38821,48.87471],[2.38744,48.87467],[2.387,48.87464],[2.38693,48.87464],[2.38684,48.87462],[2.38677,48.8746],[2.3863,48.87441],[2.38569,48.8741],[2.38521,48.87386],[2.38507,48.8738],[2.38496,48.87376],[2.38492,48.87375],[2.38445,48.87365],[2.3831,48.87348],[2.38257,48.8734],[2.38223,48.87334],[2.3819,48.87327],[2.38059,48.87301],[2.3802,48.87292],[2.37985,48.87284],[2.37955,48.87277],[2.37926,48.87269],[2.37897,48.87261],[2.37699,48.87206],[2.37692,48.87213],[2.37519,48.87369],[2.37512,48.87376],[2.37502,48.87384],[2.37478,48.87404],[2.37471,48.8741],[2.3744,48.87438],[2.37425,48.87451],[2.37422,48.87454],[2.37372,48.87497],[2.37359,48.87509],[2.37243,48.87611],[2.37239,48.87614],[2.37211,48.87639],[2.37046,48.87783],[2.37028,48.87799],[2.37027,48.87836],[2.37027,48.87844],[2.37027,48.87852],[2.37027,48.87856],[2.37026,48.87996],[2.37026,48.88002],[2.37025,48.88012],[2.37025,48.88013],[2.37025,48.88073],[2.37024,48.88145],[2.37024,48.88149],[2.37024,48.88152],[2.37024,48.88159],[2.37023,48.88233],[2.37023,48.88241],[2.37023,48.88245],[2.37022,48.88248],[2.37022,48.88248],[2.37022,48.88265],[2.37022,48.88265],[2.37022,48.88266],[2.37022,48.88266],[2.37022,48.88266],[2.37022,48.88267],[2.37022,48.88267],[2.37022,48.88268],[2.37022,48.88268],[2.37021,48.88269],[2.37021,48.8827],[2.37021,48.8827],[2.3702,48.8827],[2.3702,48.88271],[2.3702,48.88271],[2.37019,48.88272],[2.37018,48.88274],[2.37016,48.88275],[2.37015,48.88276],[2.37013,48.88277],[2.37011,48.88278],[2.37004,48.88282],[2.37003,48.88283],[2.37001,48.88283],[2.36997,48.88285],[2.36983,48.88292],[2.36963,48.88299],[2.36963,48.88299],[2.36955,48.88302],[2.36945,48.88308],[2.36935,48.88313],[2.36928,48.88317],[2.36928,48.88317],[2.36923,48.88321],[2.36922,48.88321],[2.36918,48.88325],[2.36918,48.88325],[2.36917,48.88326],[2.36914,48.88329],[2.36913,48.8833],[2.36912,48.88331],[2.36908,48.88335],[2.36904,48.8834],[2.369,48.88345],[2.36897,48.88351],[2.36895,48.88355],[2.36892,48.88362],[2.36891,48.88362],[2.36891,48.88363],[2.36888,48.88372],[2.36886,48.88377],[2.36882,48.88384],[2.36882,48.88385],[2.3688,48.88387],[2.3688,48.88387],[2.36879,48.88389],[2.36879,48.88389],[2.36878,48.88389],[2.36878,48.8839],[2.36877,48.8839],[2.36875,48.88392],[2.36875,48.88393],[2.36874,48.88393],[2.36872,48.88394],[2.36871,48.88395],[2.3687,48.88396],[2.36868,48.88397],[2.36865,48.88399],[2.36864,48.88399],[2.36862,48.884],[2.36859,48.88402],[2.36858,48.88402],[2.36856,48.88403],[2.36853,48.88404],[2.36852,48.88405],[2.36852,48.88405],[2.36847,48.88406],[2.36839,48.88409],[2.36837,48.8841],[2.36837,48.8841],[2.36836,48.8841],[2.36832,48.88411],[2.36824,48.88412],[2.3682,48.88413],[2.36812,48.88414],[2.36811,48.88414],[2.36807,48.88415],[2.36803,48.88415],[2.36803,48.88415],[2.36798,48.88416],[2.36794,48.88416],[2.36794,48.88416],[2.36785,48.88416],[2.36758,48.88418],[2.36748,48.88419],[2.36689,48.88422],[2.36678,48.88423],[2.36676,48.88423],[2.36647,48.88425],[2.36485,48.88436],[2.36469,48.88437],[2.3658,48.88554],[2.36619,48.88596],[2.36657,48.88638],[2.36679,48.88664],[2.36709,48.8874],[2.36758,48.88865],[2.36813,48.8897],[2.36831,48.89008],[2.36952,48.89292],[2.37002,48.89403],[2.37042,48.89452],[2.37052,48.89464],[2.37179,48.89541],[2.37179,48.89541],[2.37173,48.89546],[2.3714,48.89572],[2.3713,48.8958],[2.37128,48.89586],[2.37126,48.89592],[2.37125,48.89592],[2.37121,48.89596],[2.37071,48.89637],[2.37045,48.89658],[2.3704,48.89662],[2.37039,48.89663],[2.37033,48.8977],[2.3703,48.89833],[2.37025,48.89985],[2.37022,48.90039],[2.37021,48.90087],[2.37017,48.90143],[2.37017,48.90152],[2.37017,48.90157],[2.37017,48.90162],[2.37019,48.90167],[2.37021,48.90172],[2.37023,48.90176],[2.37026,48.90181],[2.37029,48.90186],[2.37054,48.90186],[2.37077,48.90187],[2.372,48.9019],[2.37209,48.9019],[2.37216,48.9019],[2.37261,48.90191],[2.37281,48.90191],[2.37291,48.90192],[2.37526,48.90197],[2.37648,48.90199],[2.37839,48.90203],[2.37932,48.90205],[2.3795,48.90206],[2.37959,48.90206],[2.37965,48.90206],[2.37972,48.90206],[2.37977,48.90206],[2.37981,48.90206],[2.37984,48.90206],[2.38028,48.90207],[2.38035,48.90207],[2.38053,48.90208],[2.38103,48.90209],[2.38135,48.9021],[2.38188,48.90211],[2.38352,48.90214],[2.38353,48.90214],[2.38444,48.90216],[2.38476,48.9021],[2.385,48.90206],[2.3882,48.90145],[2.3883,48.90143],[2.3884,48.90141],[2.38856,48.90138],[2.3888,48.90134],[2.38886,48.90133],[2.38892,48.90131],[2.38901,48.9013],[2.38905,48.90129],[2.3891,48.90128],[2.38914,48.90127],[2.38942,48.90122],[2.38943,48.90122]]],"type":"Polygon"},"properties":{"surface":6792651.12902648,"perimetre":11253.1824786}},
{"type":"Feature","geometry":{"coordinates":[[[2.37491,48.83801],[2.37698,48.8361],[2.37708,48.83601],[2.37846,48.83488],[2.37893,48.83449],[2.38099,48.83291],[2.38101,48.8329],[2.38284,48.83145],[2.38332,48.83107],[2.38442,48.83021],[2.38439,48.83019],[2.38445,48.83016],[2.38453,48.8301],[2.38465,48.83],[2.38478,48.82989],[2.38491,48.82979],[2.38504,48.82968],[2.38504,48.82968],[2.38516,48.82958],[2.38528,48.82948],[2.3854,48.82938],[2.38551,48.82928],[2.38563,48.82917],[2.38575,48.82908],[2.38587,48.82897],[2.38599,48.82887],[2.38611,48.82877],[2.38622,48.82867],[2.38635,48.82856],[2.38646,48.82847],[2.38658,48.82836],[2.3867,48.82826],[2.38682,48.82816],[2.38693,48.82806],[2.38693,48.82806],[2.38707,48.82797],[2.3872,48.82787],[2.38728,48.82781],[2.38759,48.82758],[2.38853,48.82693],[2.38906,48.82656],[2.39021,48.82576],[2.39026,48.82573],[2.39026,48.82573],[2.39026,48.82573],[2.39023,48.82571],[2.39016,48.82569],[2.39016,48.82568],[2.39007,48.82565],[2.38977,48.82552],[2.38945,48.82534],[2.38914,48.82518],[2.38902,48.82511],[2.38882,48.82501],[2.38791,48.82468],[2.38654,48.8242],[2.38598,48.824],[2.38593,48.82398],[2.38584,48.82395],[2.38583,48.82394],[2.38573,48.82391],[2.38569,48.82389],[2.38535,48.82377],[2.3852,48.82372],[2.38511,48.82369],[2.3851,48.82369],[2.38501,48.82365],[2.38334,48.82306],[2.38309,48.82297],[2.38293,48.82291],[2.38269,48.82283],[2.38152,48.82241],[2.38077,48.8217],[2.38076,48.8217],[2.38034,48.82156],[2.3793,48.82121],[2.37915,48.82117],[2.37909,48.82114],[2.37907,48.82114],[2.37903,48.82113],[2.37877,48.82104],[2.3787,48.82102],[2.37797,48.82078],[2.37777,48.82071],[2.37653,48.8203],[2.37608,48.82016],[2.37584,48.82008],[2.37581,48.82007],[2.37579,48.82006],[2.3744,48.81961],[2.3741,48.81951],[2.37402,48.81948],[2.37373,48.81939],[2.37362,48.81935],[2.37359,48.81934],[2.37341,48.81928],[2.37318,48.81921],[2.37294,48.81913],[2.3728,48.81908],[2.37093,48.81847],[2.37085,48.81844],[2.3707,48.81839],[2.37047,48.81832],[2.37001,48.81817],[2.36901,48.81784],[2.36896,48.81782],[2.36869,48.81773],[2.36771,48.81742],[2.36733,48.8173],[2.36732,48.8173],[2.36696,48.81719],[2.36533,48.81667],[2.36487,48.81652],[2.36425,48.81633],[2.36421,48.81632],[2.36419,48.81631],[2.3634,48.81606],[2.36108,48.81603],[2.36081,48.81603],[2.3606,48.81603],[2.36048,48.81602],[2.36024,48.81602],[2.35988,48.81602],[2.35879,48.81601],[2.35811,48.816],[2.3578,48.81599],[2.35681,48.81598],[2.3566,48.81598],[2.35642,48.81598],[2.35642,48.81598],[2.35623,48.81598],[2.35619,48.81598],[2.35598,48.81597],[2.35592,48.81597],[2.35591,48.81597],[2.35377,48.81754],[2.35358,48.81767],[2.35357,48.81768],[2.35348,48.81775],[2.35342,48.81779],[2.3529,48.81817],[2.35285,48.81821],[2.35283,48.81822],[2.3524,48.81853],[2.3524,48.81853],[2.3524,48.81853],[2.35172,48.8182],[2.3517,48.81819],[2.35153,48.81811],[2.35136,48.81803],[2.35061,48.81766],[2.35053,48.81762],[2.35049,48.8176],[2.34986,48.8173],[2.34913,48.81694],[2.34875,48.81676],[2.34874,48.81675],[2.34866,48.81671],[2.34858,48.81667],[2.34692,48.81586],[2.3467,48.81589],[2.34664,48.81589],[2.34535,48.81602],[2.34489,48.81606],[2.34469,48.81608],[2.34443,48.81611],[2.3445,48.81558],[2.3445,48.81558],[2.34447,48.81559],[2.34442,48.81561],[2.34435,48.81563],[2.34429,48.81565],[2.34429,48.81565],[2.34397,48.81577],[2.344,48.81613],[2.344,48.81615],[2.344,48.81626],[2.34403,48.8167],[2.34403,48.81676],[2.34404,48.81687],[2.34405,48.81699],[2.34405,48.81705],[2.34406,48.81719],[2.34407,48.8173],[2.34407,48.81742],[2.34408,48.81748],[2.34409,48.81754],[2.3441,48.81763],[2.34413,48.81776],[2.34414,48.81779],[2.34421,48.81804],[2.34459,48.81938],[2.34463,48.81954],[2.34388,48.82036],[2.34268,48.82119],[2.34248,48.82147],[2.34221,48.82185],[2.34204,48.82209],[2.34173,48.82269],[2.34144,48.82367],[2.34146,48.82397],[2.34152,48.82463],[2.34169,48.82604],[2.34167,48.82628],[2.34167,48.82637],[2.34166,48.82647],[2.34165,48.82653],[2.34162,48.827],[2.34163,48.82788],[2.34162,48.82812],[2.34157,48.82853],[2.3415,48.82881],[2.34135,48.8294],[2.34126,48.83028],[2.34121,48.83139],[2.34115,48.83179],[2.34115,48.83216],[2.34114,48.83235],[2.34114,48.83249],[2.34127,48.83312],[2.34159,48.83481],[2.34189,48.83683],[2.34189,48.83684],[2.34207,48.83836],[2.34447,48.83786],[2.347,48.83732],[2.34708,48.83731],[2.3472,48.83729],[2.34899,48.83709],[2.35166,48.83678],[2.35176,48.83678],[2.35176,48.83678],[2.35179,48.83678],[2.35182,48.83678],[2.35184,48.83679],[2.35187,48.8368],[2.35272,48.83706],[2.35535,48.8379],[2.35586,48.83807],[2.35695,48.83842],[2.3578,48.83868],[2.35915,48.83911],[2.36141,48.83983],[2.36161,48.8399],[2.36182,48.83996],[2.36211,48.84035],[2.3645,48.84358],[2.36456,48.84366],[2.36463,48.84375],[2.3647,48.84384],[2.36477,48.84394],[2.36479,48.84396],[2.36483,48.84405],[2.36485,48.84408],[2.36485,48.8441],[2.36486,48.84412],[2.36488,48.84417],[2.3649,48.84419],[2.36492,48.84423],[2.36495,48.84426],[2.36495,48.84427],[2.36503,48.84435],[2.36504,48.84436],[2.3651,48.8444],[2.36515,48.84443],[2.36603,48.84493],[2.36846,48.84309],[2.36918,48.84255],[2.37058,48.84153],[2.37212,48.84039],[2.37241,48.84017],[2.37255,48.84007],[2.37309,48.83967],[2.3736,48.83921],[2.37481,48.83811],[2.37483,48.83809],[2.37491,48.83801]]],"type":"Polygon"},"properties":{"surface":7149311.09107136,"perimetre":11546.5465264}},
{"type":"Feature","geometry":{"coordinates":[[[2.35152,48.86443],[2.35095,48.86341],[2.34668,48.86443],[2.34668,48.86443],[2.3451,48.86481],[2.34127,48.86573],[2.34127,48.86573],[2.3412,48.86574],[2.34118,48.86575],[2.34108,48.86577],[2.33737,48.86665],[2.33587,48.867],[2.33587,48.867],[2.33368,48.86752],[2.33173,48.86795],[2.33173,48.86795],[2.33066,48.86819],[2.33031,48.86836],[2.32997,48.86851],[2.32801,48.86992],[2.32984,48.87023],[2.33208,48.87062],[2.33415,48.87097],[2.33701,48.87146],[2.3371,48.87147],[2.33974,48.87193],[2.3399,48.87196],[2.34004,48.87198],[2.34307,48.87149],[2.34788,48.8707],[2.35096,48.87005],[2.35263,48.86969],[2.35426,48.86933],[2.35298,48.86703],[2.35253,48.86623],[2.35197,48.86524],[2.35152,48.86443]]],"type":"Polygon"},"properties":{"surface":991153.74474596,"perimetre":4554.10435957}},
{"type":"Feature","geometry":{"coordinates":[[[2.32584,48.86956],[2.32569,48.86954],[2.32551,48.86951],[2.32547,48.8695],[2.32526,48.86946],[2.32521,48.86946],[2.32516,48.86945],[2.32532,48.86901],[2.32503,48.86859],[2.32467,48.86806],[2.32459,48.86793],[2.32459,48.86793],[2.32353,48.86651],[2.32357,48.8665],[2.32357,48.86649],[2.32345,48.86633],[2.32333,48.86618],[2.32254,48.86516],[2.32246,48.86505],[2.32157,48.86392],[2.32141,48.86371],[2.3214,48.8637],[2.32133,48.8636],[2.32129,48.86355],[2.3209,48.86306],[2.3209,48.86306],[2.32032,48.86324],[2.32032,48.86324],[2.31987,48.86339],[2.31978,48.86341],[2.31952,48.8635],[2.31943,48.86353],[2.31874,48.86374],[2.31868,48.86376],[2.31861,48.86377],[2.31854,48.86378],[2.31847,48.86378],[2.31641,48.86373],[2.31529,48.86371],[2.31529,48.86371],[2.31039,48.86363],[2.3103,48.86363],[2.31026,48.86362],[2.30562,48.86354],[2.30538,48.86354],[2.30538,48.86354],[2.30203,48.86348],[2.30195,48.86348],[2.30192,48.86348],[2.30176,48.86348],[2.30173,48.86348],[2.30159,48.86347],[2.30152,48.86452],[2.3002,48.86506],[2.29996,48.86527],[2.29991,48.86532],[2.2999,48.86533],[2.29934,48.86714],[2.29925,48.86745],[2.29891,48.86856],[2.2983,48.86961],[2.29824,48.8697],[2.29753,48.87093],[2.29749,48.87097],[2.29749,48.87097],[2.29617,48.87248],[2.29534,48.87343],[2.29531,48.87347],[2.29531,48.87347],[2.29513,48.87367],[2.29512,48.87369],[2.29512,48.87369],[2.29512,48.87369],[2.29512,48.87369],[2.29511,48.87369],[2.29511,48.87369],[2.29511,48.87369],[2.29511,48.87369],[2.29511,48.87369],[2.29511,48.87369],[2.29511,48.8737],[2.29511,48.8737],[2.29511,48.8737],[2.29511,48.8737],[2.29511,48.8737],[2.29511,48.8737],[2.29511,48.8737],[2.29511,48.8737],[2.29511,48.8737],[2.29511,48.8737],[2.29511,48.8737],[2.2951,48.8737],[2.2951,48.8737],[2.2951,48.8737],[2.2951,48.8737],[2.2951,48.8737],[2.2951,48.87371],[2.2951,48.87371],[2.2951,48.87371],[2.2951,48.87371],[2.2951,48.87371],[2.2951,48.87371],[2.2951,48.87371],[2.2951,48.87371],[2.2951,48.87371],[2.2951,48.87371],[2.2951,48.87371],[2.2951,48.87371],[2.2951,48.87371],[2.2951,48.87371],[2.29509,48.87371],[2.29509,48.87371],[2.29509,48.87372],[2.29509,48.87372],[2.29509,48.87372],[2.29509,48.87372],[2.29509,48.87372],[2.29509,48.87372],[2.29509,48.87372],[2.29509,48.87372],[2.29509,48.87372],[2.29509,48.87372],[2.29509,48.87372],[2.29509,48.87372],[2.29509,48.87372],[2.29509,48.87372],[2.29509,48.87372],[2.29509,48.87372],[2.29508,48.87373],[2.29508,48.87373],[2.29508,48.87373],[2.29508,48.87373],[2.29508,48.87373],[2.29508,48.87373],[2.29508,48.87373],[2.29508,48.87373],[2.29508,48.87373],[2.29508,48.87373],[2.29508,48.87373],[2.29508,48.87373],[2.29508,48.87373],[2.29508,48.87373],[2.29508,48.87373],[2.29508,48.87373],[2.29508,48.87374],[2.29508,48.87374],[2.29508,48.87374],[2.29507,48.87374],[2.29507,48.87374],[2.29507,48.87374],[2.29507,48.87374],[2.29507,48.87374],[2.29507,48.87374],[2.29507,48.87374],[2.29507,48.87374],[2.29507,48.87374],[2.29507,48.87374],[2.29507,48.87374],[2.29507,48.87374],[2.29507,48.87374],[2.29507,48.87375],[2.29507,48.87375],[2.29507,48.87375],[2.29507,48.87375],[2.29507,48.87375],[2.29507,48.87375],[2.29506,48.87375],[2.29506,48.87375],[2.29506,48.87375],[2.29506,48.87375],[2.29506,48.87375],[2.29506,48.87375],[2.29506,48.87375],[2.29506,48.87375],[2.29506,48.87375],[2.29506,48.87375],[2.29506,48.87376],[2.29506,48.87376],[2.29506,48.87376],[2.29506,48.87376],[2.29506,48.87376],[2.29506,48.87376],[2.29506,48.87376],[2.29506,48.87376],[2.29506,48.87376],[2.29505,48.87376],[2.29504,48.87378],[2.29517,48.87396],[2.29527,48.8741],[2.2953,48.87414],[2.29601,48.87512],[2.29798,48.87783],[2.29802,48.87788],[2.29816,48.87808],[2.29846,48.87815],[2.29859,48.87817],[2.29873,48.8782],[2.29873,48.8782],[2.29874,48.8782],[2.30097,48.87868],[2.30309,48.87914],[2.30551,48.87966],[2.30861,48.88032],[2.30884,48.88036],[2.30914,48.88042],[2.31163,48.88072],[2.31257,48.88083],[2.3165,48.88132],[2.31666,48.88133],[2.31683,48.88137],[2.31684,48.88137],[2.31788,48.88158],[2.31875,48.88176],[2.31878,48.88177],[2.31884,48.88178],[2.31891,48.88179],[2.31963,48.88194],[2.32024,48.88206],[2.32033,48.88208],[2.32045,48.88211],[2.32052,48.88212],[2.32054,48.88212],[2.32326,48.88268],[2.32327,48.88268],[2.32329,48.88268],[2.32335,48.88269],[2.32335,48.88269],[2.32338,48.8827],[2.32342,48.88271],[2.32399,48.88283],[2.32403,48.88283],[2.32407,48.88284],[2.32407,48.88284],[2.32417,48.88286],[2.32419,48.88287],[2.32422,48.88287],[2.32423,48.88287],[2.32433,48.8829],[2.32433,48.8829],[2.32534,48.8831],[2.32542,48.88312],[2.32542,48.88312],[2.32546,48.88313],[2.3255,48.88313],[2.32654,48.88335],[2.32658,48.88336],[2.32671,48.88338],[2.32672,48.88339],[2.32692,48.88343],[2.32706,48.88346],[2.32718,48.88348],[2.32712,48.88213],[2.32706,48.88082],[2.32702,48.87964],[2.32702,48.87962],[2.32695,48.87798],[2.32695,48.8779],[2.32695,48.87785],[2.32685,48.87563],[2.32658,48.87558],[2.32694,48.87418],[2.32701,48.87389],[2.32703,48.87384],[2.32705,48.87374],[2.32701,48.87363],[2.32697,48.87354],[2.32685,48.87328],[2.32675,48.87314],[2.3265,48.87214],[2.32627,48.87127],[2.32609,48.87057],[2.32584,48.86956]]],"type":"Polygon"},"properties":{"surface":3880036.39704363,"perimetre":7880.53326819}},
{"type":"Feature","geometry":{"coordinates":[[[2.41277,48.87547],[2.41284,48.87524],[2.41285,48.87519],[2.41316,48.87412],[2.41318,48.87407],[2.41343,48.87321],[2.41344,48.8732],[2.41345,48.87316],[2.41345,48.87316],[2.41345,48.87315],[2.41346,48.87311],[2.41362,48.87258],[2.41363,48.87254],[2.41364,48.87245],[2.41367,48.87217],[2.41371,48.87176],[2.41375,48.87138],[2.4138,48.87091],[2.41381,48.87081],[2.41383,48.87066],[2.41384,48.87051],[2.41395,48.86948],[2.41399,48.86906],[2.41401,48.8689],[2.41397,48.86766],[2.41397,48.8676],[2.41396,48.8674],[2.41396,48.86727],[2.41395,48.86704],[2.41395,48.86699],[2.41395,48.86681],[2.41394,48.86668],[2.41393,48.8662],[2.41392,48.86593],[2.4139,48.86518],[2.41389,48.86514],[2.41388,48.8646],[2.41386,48.86408],[2.41391,48.86369],[2.41392,48.86367],[2.41396,48.86332],[2.41397,48.86327],[2.41397,48.86327],[2.414,48.86303],[2.41409,48.86231],[2.41414,48.86204],[2.41463,48.85906],[2.41466,48.85892],[2.41467,48.85886],[2.41474,48.85847],[2.41475,48.85838],[2.41475,48.85838],[2.41477,48.85825],[2.41523,48.85563],[2.41529,48.85525],[2.4153,48.85519],[2.4153,48.85518],[2.41531,48.85518],[2.4157,48.8529],[2.4157,48.8529],[2.41581,48.85226],[2.41583,48.85219],[2.41584,48.85213],[2.41584,48.85212],[2.41584,48.85209],[2.416,48.8512],[2.41602,48.85109],[2.41602,48.85109],[2.41605,48.85091],[2.41632,48.84941],[2.41635,48.84926],[2.41635,48.84924],[2.41635,48.84923],[2.41643,48.84879],[2.41618,48.84753],[2.41613,48.84728],[2.41612,48.84722],[2.41606,48.84696],[2.41605,48.84689],[2.41602,48.84675],[2.41599,48.84661],[2.41548,48.84666],[2.41529,48.84667],[2.41457,48.84674],[2.41449,48.84675],[2.41414,48.84678],[2.41394,48.84679],[2.41364,48.84682],[2.41361,48.84682],[2.41334,48.84685],[2.41171,48.84699],[2.41157,48.847],[2.41128,48.84702],[2.41116,48.84703],[2.4111,48.84704],[2.41098,48.84705],[2.41064,48.84708],[2.41043,48.8471],[2.40956,48.84718],[2.40945,48.84719],[2.40801,48.84731],[2.40773,48.84733],[2.40633,48.84744],[2.40631,48.84744],[2.40627,48.84745],[2.40408,48.84766],[2.40345,48.84772],[2.39945,48.84807],[2.39941,48.84807],[2.39926,48.84809],[2.39912,48.8481],[2.39914,48.84823],[2.39917,48.84836],[2.39926,48.84884],[2.39924,48.84892],[2.39895,48.84978],[2.39878,48.8503],[2.39876,48.85036],[2.39875,48.85037],[2.39874,48.85041],[2.39873,48.85044],[2.39873,48.85045],[2.39871,48.8505],[2.39847,48.85123],[2.39844,48.85131],[2.39844,48.85133],[2.39843,48.85134],[2.39843,48.85135],[2.39837,48.85142],[2.39769,48.85229],[2.39717,48.85296],[2.39712,48.85303],[2.39708,48.85308],[2.39624,48.85415],[2.39612,48.85431],[2.39608,48.85435],[2.39604,48.8544],[2.39507,48.85564],[2.3949,48.85589],[2.39446,48.85654],[2.39444,48.85657],[2.39247,48.85759],[2.39227,48.85769],[2.39216,48.85772],[2.38998,48.85837],[2.3898,48.85843],[2.38973,48.85845],[2.38973,48.85845],[2.38969,48.85847],[2.38966,48.85848],[2.38963,48.8585],[2.38958,48.85853],[2.38956,48.85855],[2.38954,48.85857],[2.38954,48.85858],[2.38952,48.8586],[2.38907,48.85953],[2.38896,48.85978],[2.38885,48.85999],[2.38871,48.86029],[2.38837,48.861],[2.38761,48.86256],[2.38752,48.86276],[2.38748,48.86283],[2.38746,48.86287],[2.38745,48.86288],[2.38744,48.8629],[2.38744,48.86291],[2.38739,48.86297],[2.38733,48.86305],[2.3873,48.86309],[2.38726,48.86312],[2.38608,48.86415],[2.38523,48.8649],[2.38503,48.86507],[2.38495,48.86514],[2.38489,48.86519],[2.38489,48.86519],[2.38475,48.86531],[2.38409,48.86589],[2.3837,48.86624],[2.38356,48.86636],[2.38346,48.86645],[2.38332,48.86671],[2.38328,48.86679],[2.38318,48.86699],[2.38314,48.86708],[2.3831,48.86715],[2.38308,48.86718],[2.38298,48.86725],[2.3828,48.86739],[2.38063,48.86901],[2.38056,48.86907],[2.37932,48.87004],[2.37919,48.87014],[2.3784,48.87076],[2.37836,48.87079],[2.37828,48.87085],[2.37798,48.87109],[2.37716,48.8719],[2.37706,48.87199],[2.37702,48.87203],[2.37699,48.87206],[2.37897,48.87261],[2.37926,48.87269],[2.37955,48.87277],[2.37985,48.87284],[2.3802,48.87292],[2.38059,48.87301],[2.3819,48.87327],[2.38223,48.87334],[2.38257,48.8734],[2.3831,48.87348],[2.38445,48.87365],[2.38492,48.87375],[2.38496,48.87376],[2.38507,48.8738],[2.38521,48.87386],[2.38569,48.8741],[2.3863,48.87441],[2.38677,48.8746],[2.38684,48.87462],[2.38693,48.87464],[2.387,48.87464],[2.38744,48.87467],[2.38821,48.87471],[2.38855,48.87479],[2.38898,48.87497],[2.38951,48.87521],[2.38978,48.87534],[2.3904,48.87545],[2.39177,48.87546],[2.39177,48.87546],[2.39196,48.87545],[2.39197,48.87545],[2.39305,48.87537],[2.39353,48.87535],[2.39533,48.87525],[2.3973,48.87543],[2.39794,48.87545],[2.39893,48.87548],[2.39896,48.87549],[2.39933,48.87557],[2.40253,48.876],[2.40257,48.87601],[2.40597,48.87701],[2.40646,48.87714],[2.40668,48.87718],[2.40694,48.87722],[2.40696,48.87723],[2.4072,48.87732],[2.40808,48.87763],[2.40837,48.87772],[2.4084,48.87772],[2.40846,48.87774],[2.40848,48.87775],[2.4085,48.87775],[2.40891,48.87787],[2.40921,48.87796],[2.40924,48.87796],[2.40934,48.87799],[2.40938,48.87801],[2.40944,48.87802],[2.40969,48.87809],[2.40982,48.87813],[2.41082,48.87842],[2.41084,48.87842],[2.41086,48.8784],[2.41098,48.87825],[2.41105,48.87817],[2.41115,48.87804],[2.4112,48.87798],[2.41142,48.87771],[2.41157,48.87752],[2.41163,48.87745],[2.41163,48.87744],[2.41167,48.8774],[2.41168,48.87739],[2.41178,48.87726],[2.41182,48.87722],[2.41224,48.87669],[2.41227,48.87666],[2.41228,48.87665],[2.41241,48.87649],[2.41242,48.87648],[2.41243,48.87647],[2.41245,48.87644],[2.41249,48.87639],[2.4125,48.87638],[2.4125,48.87636],[2.41256,48.87617],[2.4127,48.87569],[2.41274,48.87556],[2.41277,48.87547]]],"type":"Polygon"},"properties":{"surface":5983446.03718297,"perimetre":10704.9404863}},
{"type":"Feature","geometry":{"coordinates":[[[2.36383,48.8675],[2.36389,48.86747],[2.3639,48.86746],[2.36391,48.86746],[2.36396,48.86743],[2.36405,48.86737],[2.36414,48.86732],[2.3642,48.86729],[2.36423,48.86726],[2.36425,48.86725],[2.36426,48.86723],[2.36432,48.86714],[2.36438,48.86704],[2.36444,48.86694],[2.36445,48.86691],[2.36449,48.86685],[2.3645,48.86684],[2.3645,48.86684],[2.36452,48.86681],[2.36454,48.86676],[2.36467,48.86655],[2.36474,48.86645],[2.36475,48.86642],[2.36541,48.86533],[2.3658,48.86467],[2.36584,48.86461],[2.36584,48.86461],[2.3667,48.86317],[2.36672,48.86314],[2.36674,48.8631],[2.36675,48.86306],[2.36677,48.86302],[2.3669,48.86246],[2.3671,48.86163],[2.36727,48.86095],[2.36747,48.8601],[2.36762,48.85946],[2.36807,48.85759],[2.36823,48.85692],[2.36823,48.85692],[2.36848,48.85583],[2.36851,48.85573],[2.36445,48.85641],[2.3643,48.85646],[2.36283,48.8569],[2.36175,48.85725],[2.3607,48.85769],[2.35937,48.85832],[2.35932,48.85836],[2.35881,48.8587],[2.35835,48.85902],[2.3569,48.86007],[2.35686,48.86008],[2.35347,48.86122],[2.35334,48.86127],[2.35165,48.86165],[2.35016,48.86199],[2.35021,48.86209],[2.35095,48.8634],[2.35095,48.86341],[2.35152,48.86443],[2.35197,48.86524],[2.35253,48.86623],[2.35298,48.86703],[2.35426,48.86933],[2.35585,48.86896],[2.35612,48.8689],[2.35638,48.86885],[2.35728,48.86871],[2.35901,48.86846],[2.35966,48.86836],[2.36235,48.86797],[2.36261,48.86794],[2.36284,48.8679],[2.36295,48.86789],[2.3631,48.86787],[2.36319,48.86785],[2.36326,48.86784],[2.36334,48.86779],[2.36342,48.86775],[2.36359,48.86765],[2.3637,48.86758],[2.36375,48.86755],[2.36375,48.86755],[2.36376,48.86754],[2.36377,48.86754],[2.36383,48.8675]]],"type":"Polygon"},"properties":{"surface":1170882.82818778,"perimetre":4519.26364836}},
{"type":"Feature","geometry":{"coordinates":[[[2.29517,48.87396],[2.29504,48.87378],[2.29493,48.87381],[2.29455,48.87393],[2.29402,48.8741],[2.293,48.87442],[2.29049,48.87522],[2.28997,48.87539],[2.2892,48.87563],[2.288,48.87602],[2.28719,48.87628],[2.28429,48.87719],[2.28407,48.87726],[2.28396,48.8773],[2.28393,48.87731],[2.28386,48.87733],[2.2838,48.87735],[2.28378,48.87735],[2.2834,48.87748],[2.28335,48.87749],[2.28132,48.87816],[2.2798,48.87865],[2.27996,48.8787],[2.27999,48.87882],[2.27999,48.87883],[2.27999,48.87883],[2.28001,48.87892],[2.28012,48.87936],[2.28012,48.87939],[2.28015,48.87952],[2.28015,48.87953],[2.28019,48.87969],[2.28024,48.87991],[2.28026,48.87999],[2.28036,48.88042],[2.28039,48.88052],[2.28039,48.88055],[2.28041,48.88064],[2.28051,48.88107],[2.28053,48.88117],[2.28055,48.88127],[2.28063,48.88161],[2.28066,48.88176],[2.2807,48.88192],[2.2807,48.88195],[2.28086,48.88268],[2.28089,48.88279],[2.28091,48.88288],[2.28099,48.88295],[2.28105,48.88299],[2.28111,48.88304],[2.28172,48.88351],[2.28186,48.88362],[2.28196,48.88369],[2.28207,48.88378],[2.28226,48.88393],[2.28414,48.88539],[2.28434,48.88555],[2.28446,48.88564],[2.28446,48.88564],[2.28465,48.88578],[2.28532,48.88631],[2.28555,48.88648],[2.28566,48.88657],[2.28819,48.88781],[2.28863,48.88803],[2.28871,48.88807],[2.28873,48.88807],[2.2888,48.88811],[2.28904,48.88823],[2.28904,48.88823],[2.29154,48.88945],[2.29187,48.88949],[2.29241,48.88956],[2.29266,48.88959],[2.29294,48.88962],[2.29351,48.88969],[2.29367,48.88971],[2.29397,48.88974],[2.29424,48.88977],[2.29426,48.88977],[2.29434,48.88978],[2.2945,48.8898],[2.29458,48.88981],[2.29493,48.88985],[2.29504,48.88987],[2.29505,48.88987],[2.29506,48.88987],[2.29506,48.88987],[2.29548,48.89009],[2.29587,48.89029],[2.29595,48.89034],[2.296,48.89036],[2.29637,48.89056],[2.29719,48.89099],[2.29743,48.89111],[2.29754,48.89117],[2.29803,48.89143],[2.29803,48.89143],[2.29803,48.89143],[2.29809,48.89146],[2.29819,48.89151],[2.29826,48.89155],[2.29829,48.89156],[2.29836,48.8916],[2.2984,48.89162],[2.29846,48.89165],[2.29852,48.89168],[2.29857,48.89171],[2.29863,48.89174],[2.29869,48.89177],[2.29872,48.89178],[2.29942,48.89211],[2.29969,48.89224],[2.30001,48.89239],[2.30035,48.89255],[2.30061,48.89267],[2.30123,48.89296],[2.30132,48.89301],[2.30226,48.89345],[2.30227,48.89345],[2.3024,48.89351],[2.30295,48.89377],[2.30328,48.89393],[2.30364,48.8941],[2.30379,48.89417],[2.30475,48.89463],[2.30568,48.89507],[2.30582,48.89514],[2.3059,48.89518],[2.30645,48.89544],[2.30713,48.89576],[2.3073,48.89584],[2.3075,48.89594],[2.30754,48.89595],[2.30756,48.89596],[2.30859,48.89635],[2.30882,48.89643],[2.30955,48.89671],[2.30955,48.89671],[2.30968,48.89676],[2.30968,48.89676],[2.30985,48.89683],[2.30995,48.89686],[2.30996,48.89686],[2.31084,48.8972],[2.31147,48.89743],[2.31177,48.89755],[2.31184,48.89757],[2.31193,48.89761],[2.31227,48.89774],[2.31308,48.89798],[2.31339,48.89808],[2.31342,48.89809],[2.31382,48.89821],[2.31387,48.89822],[2.31414,48.8983],[2.31494,48.89855],[2.31496,48.89855],[2.31612,48.8989],[2.31629,48.89896],[2.31654,48.89904],[2.31706,48.89919],[2.31721,48.89924],[2.31738,48.89929],[2.31754,48.89934],[2.31783,48.89943],[2.31805,48.89949],[2.31852,48.89963],[2.31861,48.89969],[2.31872,48.89975],[2.31875,48.89977],[2.31878,48.89979],[2.31878,48.89979],[2.31911,48.89999],[2.31982,48.90042],[2.31989,48.90046],[2.31991,48.90047],[2.32023,48.90066],[2.32035,48.90074],[2.32039,48.90076],[2.32106,48.90078],[2.32166,48.9008],[2.32189,48.90081],[2.32321,48.90086],[2.32325,48.90086],[2.32326,48.90086],[2.3233,48.90086],[2.32348,48.90087],[2.32374,48.90087],[2.32387,48.90088],[2.32435,48.9009],[2.32437,48.9009],[2.32587,48.90095],[2.32618,48.90096],[2.32618,48.90096],[2.32639,48.90097],[2.32659,48.90097],[2.32662,48.90097],[2.32749,48.90099],[2.32963,48.90103],[2.32965,48.90103],[2.32965,48.90103],[2.33015,48.90104],[2.33015,48.90104],[2.33009,48.90086],[2.32997,48.90051],[2.32994,48.9004],[2.3299,48.90031],[2.32946,48.89899],[2.32909,48.89794],[2.32906,48.89783],[2.32901,48.8977],[2.32898,48.89763],[2.32898,48.89761],[2.32829,48.89556],[2.32744,48.89306],[2.32728,48.89258],[2.32687,48.89135],[2.32662,48.89058],[2.32628,48.88961],[2.32591,48.88853],[2.32575,48.88802],[2.32568,48.88778],[2.32562,48.88758],[2.32559,48.8875],[2.32636,48.88583],[2.32678,48.88491],[2.32739,48.88361],[2.32743,48.88352],[2.3273,48.8835],[2.32718,48.88348],[2.32706,48.88346],[2.32692,48.88343],[2.32672,48.88339],[2.32671,48.88338],[2.32658,48.88336],[2.32654,48.88335],[2.3255,48.88313],[2.32546,48.88313],[2.32542,48.88312],[2.32542,48.88312],[2.32534,48.8831],[2.32433,48.8829],[2.32433,48.8829],[2.32423,48.88287],[2.32422,48.88287],[2.32419,48.88287],[2.32417,48.88286],[2.32407,48.88284],[2.32407,48.88284],[2.32403,48.88283],[2.32399,48.88283],[2.32342,48.88271],[2.32338,48.8827],[2.32335,48.88269],[2.32335,48.88269],[2.32329,48.88268],[2.32327,48.88268],[2.32326,48.88268],[2.32054,48.88212],[2.32052,48.88212],[2.32045,48.88211],[2.32033,48.88208],[2.32024,48.88206],[2.31963,48.88194],[2.31891,48.88179],[2.31884,48.88178],[2.31878,48.88177],[2.31875,48.88176],[2.31788,48.88158],[2.31684,48.88137],[2.31683,48.88137],[2.31666,48.88133],[2.3165,48.88132],[2.31257,48.88083],[2.31163,48.88072],[2.30914,48.88042],[2.30884,48.88036],[2.30861,48.88032],[2.30551,48.87966],[2.30309,48.87914],[2.30097,48.87868],[2.29874,48.8782],[2.29873,48.8782],[2.29873,48.8782],[2.29859,48.87817],[2.29846,48.87815],[2.29816,48.87808],[2.29802,48.87788],[2.29798,48.87783],[2.29601,48.87512],[2.2953,48.87414],[2.29527,48.8741],[2.29517,48.87396]]],"type":"Polygon"},"properties":{"surface":5668834.50445393,"perimetre":10775.579516}},
{"type":"Feature","geometry":{"coordinates":[[[2.32801,48.86992],[2.32997,48.86851],[2.33031,48.86836],[2.33066,48.86819],[2.33173,48.86795],[2.33173,48.86795],[2.33368,48.86752],[2.33587,48.867],[2.33587,48.867],[2.33737,48.86665],[2.34108,48.86577],[2.34118,48.86575],[2.3412,48.86574],[2.34127,48.86573],[2.34127,48.86573],[2.3451,48.86481],[2.34668,48.86443],[2.34668,48.86443],[2.35095,48.86341],[2.35095,48.8634],[2.35021,48.86209],[2.35016,48.86199],[2.34945,48.86073],[2.34937,48.86058],[2.34822,48.85852],[2.34821,48.85849],[2.34756,48.85735],[2.34752,48.85731],[2.34752,48.85731],[2.3473,48.85722],[2.34718,48.85716],[2.34718,48.85716],[2.34705,48.85708],[2.34699,48.85701],[2.3468,48.85671],[2.3461,48.85559],[2.34598,48.85542],[2.34598,48.85542],[2.3459,48.85531],[2.34587,48.85528],[2.34459,48.85405],[2.34459,48.85405],[2.34286,48.85486],[2.3428,48.8549],[2.34268,48.85498],[2.34194,48.85563],[2.34086,48.85656],[2.34048,48.85677],[2.34038,48.85682],[2.34037,48.85683],[2.33755,48.85839],[2.33661,48.85858],[2.33291,48.85935],[2.32991,48.86013],[2.3299,48.86013],[2.32986,48.86015],[2.32982,48.86016],[2.32952,48.86027],[2.32833,48.86073],[2.32831,48.86074],[2.32707,48.86115],[2.3261,48.86148],[2.32528,48.86172],[2.32524,48.86173],[2.32523,48.86173],[2.32474,48.86189],[2.32094,48.86305],[2.3209,48.86306],[2.32129,48.86355],[2.32133,48.8636],[2.3214,48.8637],[2.32141,48.86371],[2.32157,48.86392],[2.32246,48.86505],[2.32254,48.86516],[2.32333,48.86618],[2.32345,48.86633],[2.32357,48.86649],[2.32357,48.8665],[2.32353,48.86651],[2.32459,48.86793],[2.32459,48.86793],[2.32467,48.86806],[2.32503,48.86859],[2.32532,48.86901],[2.32516,48.86945],[2.32521,48.86946],[2.32526,48.86946],[2.32547,48.8695],[2.32551,48.86951],[2.32569,48.86954],[2.32584,48.86956],[2.32584,48.86956],[2.32799,48.86993],[2.32801,48.86992],[2.32801,48.86992]]],"type":"Polygon"},"properties":{"surface":1824612.86048666,"perimetre":6054.93686218}},
{"type":"Feature","geometry":{"coordinates":[[[2.3658,48.88554],[2.36469,48.88437],[2.36454,48.88438],[2.36434,48.88439],[2.36398,48.88439],[2.36333,48.8844],[2.3626,48.8844],[2.36154,48.88441],[2.36141,48.88441],[2.35976,48.88442],[2.35956,48.88442],[2.35952,48.88442],[2.35936,48.88443],[2.35934,48.88443],[2.3593,48.88443],[2.35911,48.88442],[2.35911,48.88442],[2.35894,48.88441],[2.35729,48.88429],[2.35651,48.88423],[2.35593,48.88419],[2.3557,48.88418],[2.35566,48.88417],[2.35548,48.88416],[2.35534,48.88415],[2.35412,48.88407],[2.35133,48.88386],[2.3512,48.88385],[2.35097,48.88384],[2.35077,48.88382],[2.35067,48.88381],[2.35039,48.88379],[2.3503,48.88378],[2.35015,48.88377],[2.34982,48.88375],[2.34967,48.88374],[2.34951,48.88373],[2.34934,48.88371],[2.34882,48.88364],[2.34724,48.88346],[2.34713,48.88344],[2.347,48.88343],[2.34695,48.88342],[2.34678,48.88339],[2.34666,48.88336],[2.34666,48.88336],[2.34663,48.88336],[2.34451,48.88295],[2.34445,48.88293],[2.34444,48.88293],[2.3439,48.88282],[2.34199,48.88245],[2.34189,48.88243],[2.34158,48.88237],[2.33982,48.88202],[2.33978,48.88203],[2.33968,48.88204],[2.3396,48.88206],[2.33959,48.88206],[2.3395,48.88207],[2.33805,48.88228],[2.33789,48.8823],[2.33782,48.88231],[2.3373,48.8824],[2.3373,48.8824],[2.3372,48.88242],[2.33715,48.88244],[2.33705,48.88247],[2.33695,48.8825],[2.33497,48.88309],[2.33489,48.88311],[2.33285,48.88372],[2.33269,48.88377],[2.3326,48.8838],[2.3325,48.88383],[2.33247,48.88384],[2.33244,48.88385],[2.33212,48.88392],[2.33055,48.88429],[2.33047,48.88431],[2.32971,48.88449],[2.32944,48.88455],[2.32926,48.88444],[2.3292,48.8844],[2.32913,48.88435],[2.32852,48.88395],[2.32835,48.88385],[2.32814,48.88371],[2.32784,48.88361],[2.32773,48.88359],[2.32756,48.88355],[2.32743,48.88352],[2.32739,48.88361],[2.32678,48.88491],[2.32636,48.88583],[2.32559,48.8875],[2.32562,48.88758],[2.32568,48.88778],[2.32575,48.88802],[2.32591,48.88853],[2.32628,48.88961],[2.32662,48.89058],[2.32687,48.89135],[2.32728,48.89258],[2.32744,48.89306],[2.32829,48.89556],[2.32898,48.89761],[2.32898,48.89763],[2.32901,48.8977],[2.32906,48.89783],[2.32909,48.89794],[2.32946,48.89899],[2.3299,48.90031],[2.32994,48.9004],[2.32997,48.90051],[2.33009,48.90086],[2.33015,48.90104],[2.33031,48.90104],[2.33055,48.90105],[2.33133,48.90106],[2.33151,48.90106],[2.33461,48.90114],[2.33469,48.90114],[2.3349,48.90114],[2.335,48.90114],[2.33522,48.90115],[2.33647,48.90118],[2.33706,48.90119],[2.33732,48.9012],[2.33735,48.9012],[2.33739,48.9012],[2.33772,48.9012],[2.33782,48.90121],[2.33799,48.90121],[2.33848,48.90122],[2.33962,48.90124],[2.33975,48.90124],[2.33982,48.90125],[2.34151,48.90128],[2.34324,48.90131],[2.34329,48.90131],[2.3437,48.90132],[2.34412,48.90133],[2.34425,48.90133],[2.34479,48.90134],[2.34499,48.90135],[2.3465,48.90138],[2.34716,48.90139],[2.34801,48.90141],[2.34807,48.90141],[2.34813,48.90141],[2.35073,48.90147],[2.3515,48.90148],[2.35165,48.90149],[2.35196,48.90149],[2.35205,48.90149],[2.35205,48.90149],[2.35206,48.90149],[2.35207,48.90149],[2.35213,48.9015],[2.35222,48.9015],[2.35438,48.90154],[2.35567,48.90156],[2.35658,48.90158],[2.35776,48.9016],[2.35777,48.9016],[2.35835,48.90161],[2.3584,48.90161],[2.3586,48.90162],[2.35874,48.90162],[2.35885,48.90162],[2.35911,48.90163],[2.35923,48.90163],[2.35939,48.90164],[2.3605,48.90166],[2.36141,48.90168],[2.36209,48.90169],[2.3623,48.9017],[2.36355,48.90172],[2.36361,48.90172],[2.36407,48.90173],[2.36436,48.90174],[2.36563,48.90176],[2.36564,48.90176],[2.36574,48.90176],[2.36736,48.9018],[2.3674,48.9018],[2.36889,48.90183],[2.36929,48.90184],[2.37002,48.90185],[2.37029,48.90186],[2.37026,48.90181],[2.37023,48.90176],[2.37021,48.90172],[2.37019,48.90167],[2.37017,48.90162],[2.37017,48.90157],[2.37017,48.90152],[2.37017,48.90143],[2.37021,48.90087],[2.37022,48.90039],[2.37025,48.89985],[2.3703,48.89833],[2.37033,48.8977],[2.37039,48.89663],[2.3704,48.89662],[2.37045,48.89658],[2.37071,48.89637],[2.37121,48.89596],[2.37125,48.89592],[2.37126,48.89592],[2.37128,48.89586],[2.3713,48.8958],[2.3714,48.89572],[2.37173,48.89546],[2.37179,48.89541],[2.37179,48.89541],[2.37052,48.89464],[2.37042,48.89452],[2.37002,48.89403],[2.36952,48.89292],[2.36831,48.89008],[2.36813,48.8897],[2.36758,48.88865],[2.36709,48.8874],[2.36679,48.88664],[2.36657,48.88638],[2.36619,48.88596],[2.3658,48.88554]]],"type":"Polygon"},"properties":{"surface":5996051.30811905,"perimetre":9916.46417634}},
{"type":"Feature","geometry":{"coordinates":[[[2.36469,48.88437],[2.36485,48.88436],[2.36647,48.88425],[2.36676,48.88423],[2.36678,48.88423],[2.36689,48.88422],[2.36748,48.88419],[2.36758,48.88418],[2.36785,48.88416],[2.36794,48.88416],[2.36794,48.88416],[2.36798,48.88416],[2.36803,48.88415],[2.36803,48.88415],[2.36807,48.88415],[2.36811,48.88414],[2.36812,48.88414],[2.3682,48.88413],[2.36824,48.88412],[2.36832,48.88411],[2.36836,48.8841],[2.36837,48.8841],[2.36837,48.8841],[2.36839,48.88409],[2.36847,48.88406],[2.36852,48.88405],[2.36852,48.88405],[2.36853,48.88404],[2.36856,48.88403],[2.36858,48.88402],[2.36859,48.88402],[2.36862,48.884],[2.36864,48.88399],[2.36865,48.88399],[2.36868,48.88397],[2.3687,48.88396],[2.36871,48.88395],[2.36872,48.88394],[2.36874,48.88393],[2.36875,48.88393],[2.36875,48.88392],[2.36877,48.8839],[2.36878,48.8839],[2.36878,48.88389],[2.36879,48.88389],[2.36879,48.88389],[2.3688,48.88387],[2.3688,48.88387],[2.36882,48.88385],[2.36882,48.88384],[2.36886,48.88377],[2.36888,48.88372],[2.36891,48.88363],[2.36891,48.88362],[2.36892,48.88362],[2.36895,48.88355],[2.36897,48.88351],[2.369,48.88345],[2.36904,48.8834],[2.36908,48.88335],[2.36912,48.88331],[2.36913,48.8833],[2.36914,48.88329],[2.36917,48.88326],[2.36918,48.88325],[2.36918,48.88325],[2.36922,48.88321],[2.36923,48.88321],[2.36928,48.88317],[2.36928,48.88317],[2.36935,48.88313],[2.36945,48.88308],[2.36955,48.88302],[2.36963,48.88299],[2.36963,48.88299],[2.36983,48.88292],[2.36997,48.88285],[2.37001,48.88283],[2.37003,48.88283],[2.37004,48.88282],[2.37011,48.88278],[2.37013,48.88277],[2.37015,48.88276],[2.37016,48.88275],[2.37018,48.88274],[2.37019,48.88272],[2.3702,48.88271],[2.3702,48.88271],[2.3702,48.8827],[2.37021,48.8827],[2.37021,48.8827],[2.37021,48.88269],[2.37022,48.88268],[2.37022,48.88268],[2.37022,48.88267],[2.37022,48.88267],[2.37022,48.88266],[2.37022,48.88266],[2.37022,48.88266],[2.37022,48.88265],[2.37022,48.88265],[2.37022,48.88248],[2.37022,48.88248],[2.37023,48.88245],[2.37023,48.88241],[2.37023,48.88233],[2.37024,48.88159],[2.37024,48.88152],[2.37024,48.88149],[2.37024,48.88145],[2.37025,48.88073],[2.37025,48.88013],[2.37025,48.88012],[2.37026,48.88002],[2.37026,48.87996],[2.37027,48.87856],[2.37027,48.87852],[2.37027,48.87844],[2.37027,48.87836],[2.37028,48.87799],[2.37046,48.87783],[2.37211,48.87639],[2.37239,48.87614],[2.37243,48.87611],[2.37359,48.87509],[2.37372,48.87497],[2.37422,48.87454],[2.37425,48.87451],[2.3744,48.87438],[2.37471,48.8741],[2.37478,48.87404],[2.37502,48.87384],[2.37512,48.87376],[2.37519,48.87369],[2.37692,48.87213],[2.37699,48.87206],[2.37692,48.87204],[2.37424,48.87109],[2.37401,48.87098],[2.3736,48.87081],[2.37309,48.87063],[2.37289,48.87056],[2.36964,48.86957],[2.36933,48.86946],[2.36832,48.86907],[2.36787,48.86892],[2.36761,48.86883],[2.36739,48.86876],[2.36635,48.86847],[2.36552,48.8682],[2.36392,48.86754],[2.36383,48.8675],[2.36377,48.86754],[2.36376,48.86754],[2.36375,48.86755],[2.36375,48.86755],[2.3637,48.86758],[2.36359,48.86765],[2.36342,48.86775],[2.36334,48.86779],[2.36326,48.86784],[2.36319,48.86785],[2.3631,48.86787],[2.36295,48.86789],[2.36284,48.8679],[2.36261,48.86794],[2.36235,48.86797],[2.35966,48.86836],[2.35901,48.86846],[2.35728,48.86871],[2.35638,48.86885],[2.35612,48.8689],[2.35585,48.86896],[2.35426,48.86933],[2.35263,48.86969],[2.35096,48.87005],[2.34788,48.8707],[2.3479,48.87201],[2.34791,48.87402],[2.34825,48.87579],[2.34832,48.87602],[2.34866,48.87663],[2.34908,48.87742],[2.34911,48.87748],[2.3492,48.87855],[2.34929,48.87905],[2.34952,48.87967],[2.34952,48.87969],[2.34986,48.88063],[2.34983,48.88109],[2.34971,48.88222],[2.34959,48.88349],[2.34951,48.88373],[2.34967,48.88374],[2.34982,48.88375],[2.35015,48.88377],[2.3503,48.88378],[2.35039,48.88379],[2.35067,48.88381],[2.35077,48.88382],[2.35097,48.88384],[2.3512,48.88385],[2.35133,48.88386],[2.35412,48.88407],[2.35534,48.88415],[2.35548,48.88416],[2.35566,48.88417],[2.3557,48.88418],[2.35593,48.88419],[2.35651,48.88423],[2.35729,48.88429],[2.35894,48.88441],[2.35911,48.88442],[2.35911,48.88442],[2.3593,48.88443],[2.35934,48.88443],[2.35936,48.88443],[2.35952,48.88442],[2.35956,48.88442],[2.35976,48.88442],[2.36141,48.88441],[2.36154,48.88441],[2.3626,48.8844],[2.36333,48.8844],[2.36398,48.88439],[2.36434,48.88439],[2.36454,48.88438],[2.36469,48.88437]]],"type":"Polygon"},"properties":{"surface":2891739.44162064,"perimetre":6739.37505466}},
{"type":"Feature","geometry":{"coordinates":[[[2.39624,48.85415],[2.39708,48.85308],[2.39712,48.85303],[2.39717,48.85296],[2.39769,48.85229],[2.39837,48.85142],[2.39843,48.85135],[2.39843,48.85134],[2.39844,48.85133],[2.39844,48.85131],[2.39847,48.85123],[2.39871,48.8505],[2.39873,48.85045],[2.39873,48.85044],[2.39874,48.85041],[2.39875,48.85037],[2.39876,48.85036],[2.39878,48.8503],[2.39895,48.84978],[2.39924,48.84892],[2.39926,48.84884],[2.39917,48.84836],[2.39914,48.84823],[2.39912,48.8481],[2.39886,48.84812],[2.39867,48.84814],[2.3978,48.84822],[2.39762,48.84823],[2.39736,48.84826],[2.39695,48.84829],[2.39651,48.84833],[2.39592,48.84838],[2.39533,48.84847],[2.39436,48.84861],[2.39337,48.84876],[2.3901,48.84926],[2.38949,48.84935],[2.38434,48.85013],[2.38378,48.85021],[2.38157,48.85039],[2.38012,48.85045],[2.3794,48.85055],[2.37882,48.85063],[2.37851,48.85071],[2.37777,48.85089],[2.37485,48.8516],[2.37379,48.85187],[2.37355,48.85193],[2.37197,48.8524],[2.37189,48.85242],[2.37185,48.85244],[2.37182,48.85245],[2.37174,48.85248],[2.37151,48.85258],[2.37144,48.85261],[2.3714,48.85263],[2.37136,48.85265],[2.3713,48.85268],[2.37091,48.85291],[2.3704,48.85323],[2.37039,48.85324],[2.37038,48.85324],[2.37038,48.85324],[2.37037,48.85324],[2.37035,48.85325],[2.37032,48.85326],[2.37032,48.85326],[2.37031,48.85326],[2.3703,48.85326],[2.37028,48.85326],[2.36934,48.85318],[2.36914,48.85316],[2.36913,48.85318],[2.36913,48.8532],[2.36911,48.85327],[2.36911,48.8533],[2.36911,48.8533],[2.3691,48.85331],[2.369,48.85374],[2.36851,48.85573],[2.36848,48.85583],[2.36823,48.85692],[2.36823,48.85692],[2.36807,48.85759],[2.36762,48.85946],[2.36747,48.8601],[2.36727,48.86095],[2.3671,48.86163],[2.3669,48.86246],[2.36677,48.86302],[2.36675,48.86306],[2.36674,48.8631],[2.36672,48.86314],[2.3667,48.86317],[2.36584,48.86461],[2.36584,48.86461],[2.3658,48.86467],[2.36541,48.86533],[2.36475,48.86642],[2.36474,48.86645],[2.36467,48.86655],[2.36454,48.86676],[2.36452,48.86681],[2.3645,48.86684],[2.3645,48.86684],[2.36449,48.86685],[2.36445,48.86691],[2.36444,48.86694],[2.36438,48.86704],[2.36432,48.86714],[2.36426,48.86723],[2.36425,48.86725],[2.36423,48.86726],[2.3642,48.86729],[2.36414,48.86732],[2.36405,48.86737],[2.36396,48.86743],[2.36391,48.86746],[2.3639,48.86746],[2.36389,48.86747],[2.36383,48.8675],[2.36392,48.86754],[2.36552,48.8682],[2.36635,48.86847],[2.36739,48.86876],[2.36761,48.86883],[2.36787,48.86892],[2.36832,48.86907],[2.36933,48.86946],[2.36964,48.86957],[2.37289,48.87056],[2.37309,48.87063],[2.3736,48.87081],[2.37401,48.87098],[2.37424,48.87109],[2.37692,48.87204],[2.37699,48.87206],[2.37702,48.87203],[2.37706,48.87199],[2.37716,48.8719],[2.37798,48.87109],[2.37828,48.87085],[2.37836,48.87079],[2.3784,48.87076],[2.37919,48.87014],[2.37932,48.87004],[2.38056,48.86907],[2.38063,48.86901],[2.3828,48.86739],[2.38298,48.86725],[2.38308,48.86718],[2.3831,48.86715],[2.38314,48.86708],[2.38318,48.86699],[2.38328,48.86679],[2.38332,48.86671],[2.38346,48.86645],[2.38356,48.86636],[2.3837,48.86624],[2.38409,48.86589],[2.38475,48.86531],[2.38489,48.86519],[2.38489,48.86519],[2.38495,48.86514],[2.38503,48.86507],[2.38523,48.8649],[2.38608,48.86415],[2.38726,48.86312],[2.3873,48.86309],[2.38733,48.86305],[2.38739,48.86297],[2.38744,48.86291],[2.38744,48.8629],[2.38745,48.86288],[2.38746,48.86287],[2.38748,48.86283],[2.38752,48.86276],[2.38761,48.86256],[2.38837,48.861],[2.38871,48.86029],[2.38885,48.85999],[2.38896,48.85978],[2.38907,48.85953],[2.38952,48.8586],[2.38954,48.85858],[2.38954,48.85857],[2.38956,48.85855],[2.38958,48.85853],[2.38963,48.8585],[2.38966,48.85848],[2.38969,48.85847],[2.38973,48.85845],[2.38973,48.85845],[2.3898,48.85843],[2.38998,48.85837],[2.39216,48.85772],[2.39227,48.85769],[2.39247,48.85759],[2.39444,48.85657],[2.39446,48.85654],[2.3949,48.85589],[2.39507,48.85564],[2.39604,48.8544],[2.39608,48.85435],[2.39612,48.85431],[2.39624,48.85415]]],"type":"Polygon"},"properties":{"surface":3665441.55248808,"perimetre":8282.01188584}},
{"type":"Feature","geometry":{"coordinates":[[[2.33381,48.84061],[2.33673,48.83965],[2.33969,48.83887],[2.33974,48.83885],[2.34207,48.83836],[2.34189,48.83684],[2.34189,48.83683],[2.34159,48.83481],[2.34127,48.83312],[2.34114,48.83249],[2.34114,48.83235],[2.34115,48.83216],[2.34115,48.83179],[2.34121,48.83139],[2.34126,48.83028],[2.34135,48.8294],[2.3415,48.82881],[2.34157,48.82853],[2.34162,48.82812],[2.34163,48.82788],[2.34162,48.827],[2.34165,48.82653],[2.34166,48.82647],[2.34167,48.82637],[2.34167,48.82628],[2.34169,48.82604],[2.34152,48.82463],[2.34146,48.82397],[2.34144,48.82367],[2.34173,48.82269],[2.34204,48.82209],[2.34221,48.82185],[2.34248,48.82147],[2.34268,48.82119],[2.34388,48.82036],[2.34463,48.81954],[2.34459,48.81938],[2.34421,48.81804],[2.34414,48.81779],[2.34413,48.81776],[2.3441,48.81763],[2.34409,48.81754],[2.34408,48.81748],[2.34407,48.81742],[2.34407,48.8173],[2.34406,48.81719],[2.34405,48.81705],[2.34405,48.81699],[2.34404,48.81687],[2.34403,48.81676],[2.34403,48.8167],[2.344,48.81626],[2.344,48.81615],[2.344,48.81613],[2.34397,48.81577],[2.34308,48.81609],[2.34171,48.81634],[2.34168,48.81634],[2.34121,48.81637],[2.338,48.81654],[2.33709,48.81658],[2.33373,48.81676],[2.33373,48.81676],[2.33175,48.81704],[2.33177,48.81707],[2.33179,48.81712],[2.3318,48.81713],[2.3318,48.81714],[2.33181,48.81714],[2.33191,48.81733],[2.33237,48.81821],[2.33237,48.81821],[2.33237,48.81822],[2.33179,48.81834],[2.33178,48.81835],[2.33159,48.81839],[2.3302,48.81869],[2.3294,48.81887],[2.32927,48.8189],[2.32919,48.81891],[2.32902,48.81895],[2.32895,48.81897],[2.32706,48.81939],[2.32704,48.8194],[2.32691,48.81943],[2.3268,48.81945],[2.32671,48.81947],[2.32585,48.81966],[2.32563,48.81971],[2.32561,48.81972],[2.32537,48.81977],[2.3239,48.8201],[2.32183,48.82056],[2.32099,48.82075],[2.32039,48.82088],[2.3202,48.82092],[2.32006,48.82096],[2.31996,48.82098],[2.31993,48.82098],[2.31991,48.82099],[2.31964,48.82105],[2.31957,48.82106],[2.31807,48.8214],[2.31741,48.82154],[2.31559,48.82195],[2.31469,48.82215],[2.31455,48.82218],[2.31451,48.82218],[2.31449,48.82219],[2.31417,48.82226],[2.31409,48.82228],[2.31407,48.82228],[2.31098,48.82297],[2.31026,48.82313],[2.30951,48.82329],[2.30951,48.8233],[2.30915,48.82337],[2.30901,48.82341],[2.30842,48.82354],[2.30838,48.82354],[2.3082,48.82358],[2.30702,48.82384],[2.30679,48.82389],[2.30624,48.82401],[2.30446,48.82442],[2.304,48.82452],[2.30244,48.82488],[2.30228,48.82491],[2.30224,48.82492],[2.30199,48.82498],[2.30196,48.82499],[2.30176,48.82503],[2.30166,48.82505],[2.30131,48.82513],[2.30129,48.82514],[2.30122,48.82515],[2.3012,48.82515],[2.30127,48.82521],[2.30127,48.82521],[2.30135,48.82528],[2.30146,48.82537],[2.30159,48.82547],[2.30171,48.82557],[2.30172,48.82557],[2.30239,48.82613],[2.30362,48.82713],[2.30415,48.82756],[2.30453,48.82787],[2.30519,48.82842],[2.3055,48.82867],[2.30618,48.82922],[2.30713,48.82998],[2.30766,48.8304],[2.3085,48.83108],[2.30959,48.83201],[2.30984,48.83223],[2.31079,48.83302],[2.3108,48.83303],[2.3129,48.83476],[2.3129,48.83476],[2.3167,48.83787],[2.3167,48.83787],[2.31719,48.83828],[2.31736,48.83842],[2.31993,48.84052],[2.31994,48.84051],[2.32072,48.84011],[2.32113,48.8399],[2.32137,48.83978],[2.32184,48.84017],[2.32149,48.84101],[2.3216,48.8411],[2.32257,48.84189],[2.32471,48.84362],[2.32638,48.84306],[2.32711,48.84282],[2.32982,48.84193],[2.33045,48.84172],[2.33108,48.84151],[2.33381,48.84061]]],"type":"Polygon"},"properties":{"surface":5614877.30907921,"perimetre":10317.4833099}},
{"type":"Feature","geometry":{"coordinates":[[[2.34459,48.85405],[2.34428,48.85375],[2.34383,48.85277],[2.34317,48.85139],[2.34268,48.85036],[2.34265,48.85031],[2.34147,48.84837],[2.34092,48.84748],[2.34084,48.84735],[2.34084,48.84734],[2.3405,48.84671],[2.34026,48.84628],[2.34026,48.84628],[2.33897,48.84396],[2.33818,48.8425],[2.33777,48.84175],[2.33776,48.84175],[2.3373,48.84093],[2.33727,48.84088],[2.33724,48.84085],[2.33719,48.84081],[2.33716,48.84079],[2.33712,48.84076],[2.33707,48.84074],[2.33701,48.84072],[2.33696,48.84071],[2.33694,48.8407],[2.3369,48.8407],[2.33684,48.8407],[2.33679,48.8407],[2.33678,48.84055],[2.33677,48.84035],[2.33676,48.84013],[2.33673,48.83965],[2.33381,48.84061],[2.33108,48.84151],[2.33045,48.84172],[2.32982,48.84193],[2.32711,48.84282],[2.32638,48.84306],[2.32471,48.84362],[2.32389,48.84389],[2.32313,48.84414],[2.32133,48.84474],[2.3202,48.84511],[2.31915,48.84551],[2.31657,48.84682],[2.31804,48.84734],[2.31908,48.84773],[2.31936,48.84785],[2.32008,48.84818],[2.32018,48.84823],[2.32054,48.84842],[2.32213,48.84925],[2.3229,48.84963],[2.32329,48.84983],[2.32414,48.85023],[2.32527,48.8507],[2.32664,48.85126],[2.32687,48.85141],[2.32719,48.85163],[2.32842,48.85182],[2.32931,48.85261],[2.32938,48.85274],[2.33043,48.85442],[2.33046,48.85446],[2.3307,48.85496],[2.33084,48.8552],[2.33115,48.85562],[2.33167,48.85631],[2.33275,48.85763],[2.33324,48.85824],[2.33325,48.85824],[2.33327,48.85826],[2.33245,48.85851],[2.33291,48.85935],[2.33661,48.85858],[2.33755,48.85839],[2.34037,48.85683],[2.34038,48.85682],[2.34048,48.85677],[2.34086,48.85656],[2.34194,48.85563],[2.34268,48.85498],[2.3428,48.8549],[2.34286,48.85486],[2.34459,48.85405]]],"type":"Polygon"},"properties":{"surface":2153095.58639283,"perimetre":6483.68678565}},
{"type":"Feature","geometry":{"coordinates":[[[2.29932,48.85217],[2.30088,48.85118],[2.30096,48.85123],[2.30375,48.84944],[2.30615,48.8479],[2.30734,48.84714],[2.30804,48.84739],[2.30822,48.84743],[2.31038,48.84795],[2.31053,48.84799],[2.31116,48.84758],[2.31126,48.84751],[2.31149,48.84737],[2.31163,48.84728],[2.31177,48.84719],[2.31209,48.84698],[2.31364,48.84599],[2.31373,48.84593],[2.3161,48.84666],[2.31657,48.84682],[2.31915,48.84551],[2.3202,48.84511],[2.32133,48.84474],[2.32313,48.84414],[2.32389,48.84389],[2.32471,48.84362],[2.32257,48.84189],[2.3216,48.8411],[2.32149,48.84101],[2.32184,48.84017],[2.32137,48.83978],[2.32113,48.8399],[2.32072,48.84011],[2.31994,48.84051],[2.31993,48.84052],[2.31736,48.83842],[2.31719,48.83828],[2.3167,48.83787],[2.3167,48.83787],[2.3129,48.83476],[2.3129,48.83476],[2.3108,48.83303],[2.31079,48.83302],[2.30984,48.83223],[2.30959,48.83201],[2.3085,48.83108],[2.30766,48.8304],[2.30713,48.82998],[2.30618,48.82922],[2.3055,48.82867],[2.30519,48.82842],[2.30453,48.82787],[2.30415,48.82756],[2.30362,48.82713],[2.30239,48.82613],[2.30172,48.82557],[2.30171,48.82557],[2.30159,48.82547],[2.30146,48.82537],[2.30135,48.82528],[2.30127,48.82521],[2.30127,48.82521],[2.3012,48.82515],[2.30108,48.82518],[2.30086,48.82523],[2.30041,48.82533],[2.30034,48.82534],[2.30022,48.82537],[2.29841,48.82576],[2.29737,48.82599],[2.2972,48.82603],[2.29707,48.82605],[2.29702,48.82606],[2.29691,48.82609],[2.29522,48.82647],[2.29392,48.82676],[2.29382,48.82678],[2.29372,48.8268],[2.29369,48.82681],[2.29341,48.82687],[2.29281,48.827],[2.29276,48.82702],[2.29268,48.82703],[2.29256,48.82706],[2.29241,48.8271],[2.29222,48.82714],[2.292,48.82723],[2.29199,48.82724],[2.29172,48.82735],[2.2913,48.82753],[2.29093,48.82768],[2.29082,48.82773],[2.28938,48.82833],[2.28922,48.8284],[2.28877,48.82859],[2.28833,48.82877],[2.28831,48.82878],[2.28828,48.82879],[2.28757,48.82909],[2.2867,48.82946],[2.28596,48.82977],[2.28503,48.83016],[2.28494,48.8302],[2.28476,48.83027],[2.28458,48.83035],[2.28332,48.83088],[2.28293,48.83102],[2.28285,48.83105],[2.28183,48.83143],[2.28065,48.83186],[2.28049,48.83192],[2.28044,48.83194],[2.28037,48.83196],[2.28024,48.83201],[2.27919,48.8324],[2.27913,48.83242],[2.27903,48.83246],[2.27667,48.83054],[2.2759,48.82991],[2.27551,48.82959],[2.27548,48.82957],[2.27524,48.82943],[2.27482,48.82917],[2.27346,48.82836],[2.27326,48.82824],[2.27314,48.82817],[2.27314,48.82816],[2.27309,48.82814],[2.27293,48.82804],[2.27274,48.82793],[2.27274,48.82793],[2.27206,48.82792],[2.26783,48.82784],[2.26781,48.82785],[2.26764,48.82796],[2.26763,48.82796],[2.26753,48.82906],[2.26732,48.83146],[2.26732,48.83149],[2.26732,48.83149],[2.26734,48.83152],[2.26734,48.83153],[2.26734,48.83153],[2.26738,48.83156],[2.26761,48.83172],[2.2686,48.83228],[2.2686,48.83228],[2.26912,48.83256],[2.2692,48.83261],[2.26944,48.83274],[2.26957,48.83282],[2.26965,48.83286],[2.26997,48.83297],[2.27004,48.833],[2.27004,48.833],[2.27004,48.833],[2.27003,48.833],[2.26995,48.83306],[2.26985,48.83314],[2.26945,48.83342],[2.26853,48.83408],[2.26785,48.83456],[2.26785,48.83456],[2.26783,48.83457],[2.2678,48.83457],[2.26742,48.83463],[2.26736,48.83464],[2.2673,48.83465],[2.26701,48.8346],[2.2661,48.83445],[2.26608,48.83444],[2.26516,48.83428],[2.26514,48.83428],[2.26513,48.83428],[2.26479,48.83422],[2.26468,48.8342],[2.26454,48.83417],[2.26453,48.83417],[2.26436,48.83414],[2.26296,48.8339],[2.26296,48.8339],[2.26371,48.83466],[2.26517,48.83617],[2.26759,48.83852],[2.2683,48.83929],[2.26842,48.83941],[2.26923,48.84029],[2.2696,48.84068],[2.26978,48.84087],[2.27095,48.84208],[2.27157,48.84273],[2.27225,48.84341],[2.27309,48.84426],[2.27336,48.84454],[2.27339,48.84456],[2.27344,48.84461],[2.27415,48.84534],[2.2752,48.84643],[2.27539,48.84662],[2.27571,48.84696],[2.27699,48.84805],[2.27799,48.84884],[2.27916,48.84977],[2.27955,48.85006],[2.27969,48.85016],[2.27982,48.85025],[2.27996,48.85036],[2.2801,48.85046],[2.28088,48.851],[2.28239,48.85206],[2.28269,48.85227],[2.28275,48.85232],[2.28276,48.85233],[2.28279,48.85235],[2.28284,48.85238],[2.283,48.85249],[2.28369,48.85298],[2.28436,48.85345],[2.28482,48.85377],[2.28576,48.85445],[2.28591,48.85456],[2.28591,48.85456],[2.28599,48.85462],[2.28741,48.85562],[2.28744,48.85564],[2.28751,48.85569],[2.28751,48.85569],[2.28754,48.85571],[2.28757,48.85573],[2.28759,48.85575],[2.28765,48.85579],[2.28791,48.85598],[2.28798,48.85602],[2.28811,48.85612],[2.28834,48.85653],[2.28848,48.85676],[2.28859,48.85694],[2.28873,48.85715],[2.28885,48.85734],[2.28887,48.85736],[2.28891,48.85742],[2.28894,48.85746],[2.28901,48.85754],[2.28906,48.85759],[2.28913,48.85766],[2.28984,48.85824],[2.29033,48.85793],[2.29034,48.85792],[2.29034,48.85792],[2.29035,48.85792],[2.29036,48.85791],[2.29037,48.8579],[2.29038,48.8579],[2.29039,48.85789],[2.2904,48.85789],[2.29041,48.85788],[2.29041,48.85788],[2.29042,48.85787],[2.29043,48.85787],[2.29044,48.85786],[2.29044,48.85785],[2.29045,48.85785],[2.29046,48.85784],[2.29047,48.85784],[2.29048,48.85783],[2.29049,48.85782],[2.2905,48.85782],[2.29051,48.85781],[2.29052,48.8578],[2.29053,48.8578],[2.29054,48.85779],[2.29055,48.85779],[2.29055,48.85779],[2.29056,48.85778],[2.29057,48.85777],[2.29058,48.85777],[2.29059,48.85776],[2.2906,48.85775],[2.29061,48.85775],[2.29062,48.85774],[2.2907,48.85769],[2.29078,48.85764],[2.29294,48.85627],[2.29308,48.85617],[2.29575,48.85447],[2.29587,48.85439],[2.29593,48.85435],[2.29739,48.85341],[2.29792,48.85307],[2.29932,48.85217]]],"type":"Polygon"},"properties":{"surface":8494994.08101075,"perimetre":13678.7983149}},
{"type":"Feature","geometry":{"coordinates":[[[2.30088,48.85118],[2.29932,48.85217],[2.29792,48.85307],[2.29739,48.85341],[2.29593,48.85435],[2.29587,48.85439],[2.29575,48.85447],[2.29308,48.85617],[2.29294,48.85627],[2.29078,48.85764],[2.2907,48.85769],[2.29062,48.85774],[2.29061,48.85775],[2.2906,48.85775],[2.29059,48.85776],[2.29058,48.85777],[2.29057,48.85777],[2.29056,48.85778],[2.29055,48.85779],[2.29055,48.85779],[2.29054,48.85779],[2.29053,48.8578],[2.29052,48.8578],[2.29051,48.85781],[2.2905,48.85782],[2.29049,48.85782],[2.29048,48.85783],[2.29047,48.85784],[2.29046,48.85784],[2.29045,48.85785],[2.29044,48.85785],[2.29044,48.85786],[2.29043,48.85787],[2.29042,48.85787],[2.29041,48.85788],[2.29041,48.85788],[2.2904,48.85789],[2.29039,48.85789],[2.29038,48.8579],[2.29037,48.8579],[2.29036,48.85791],[2.29035,48.85792],[2.29034,48.85792],[2.29034,48.85792],[2.29033,48.85793],[2.28984,48.85824],[2.29125,48.85935],[2.29156,48.85961],[2.29156,48.85961],[2.29178,48.85978],[2.29195,48.85991],[2.29268,48.86044],[2.29361,48.86112],[2.29392,48.86133],[2.2942,48.86152],[2.29432,48.86159],[2.29466,48.86176],[2.29509,48.86196],[2.29543,48.86211],[2.29556,48.86217],[2.29589,48.86231],[2.29601,48.86237],[2.29615,48.86242],[2.29622,48.86245],[2.29637,48.86251],[2.29638,48.86251],[2.29652,48.86256],[2.29657,48.86258],[2.29662,48.86259],[2.29675,48.86263],[2.29678,48.86265],[2.29684,48.86267],[2.29705,48.86273],[2.29724,48.86279],[2.29743,48.86285],[2.29744,48.86285],[2.29754,48.86288],[2.29792,48.86298],[2.29857,48.86313],[2.29867,48.86316],[2.29895,48.86322],[2.29923,48.86327],[2.29923,48.86327],[2.29924,48.86327],[2.29978,48.86335],[2.29979,48.86335],[2.29979,48.86335],[2.30007,48.86338],[2.30048,48.86342],[2.30107,48.86345],[2.30112,48.86345],[2.30159,48.86347],[2.30173,48.86348],[2.30176,48.86348],[2.30192,48.86348],[2.30195,48.86348],[2.30203,48.86348],[2.30538,48.86354],[2.30538,48.86354],[2.30562,48.86354],[2.31026,48.86362],[2.3103,48.86363],[2.31039,48.86363],[2.31529,48.86371],[2.31529,48.86371],[2.31641,48.86373],[2.31847,48.86378],[2.31854,48.86378],[2.31861,48.86377],[2.31868,48.86376],[2.31874,48.86374],[2.31943,48.86353],[2.31952,48.8635],[2.31978,48.86341],[2.31987,48.86339],[2.32032,48.86324],[2.32032,48.86324],[2.3209,48.86306],[2.3209,48.86306],[2.32094,48.86305],[2.32474,48.86189],[2.32523,48.86173],[2.32524,48.86173],[2.32528,48.86172],[2.3261,48.86148],[2.32707,48.86115],[2.32831,48.86074],[2.32833,48.86073],[2.32952,48.86027],[2.32982,48.86016],[2.32986,48.86015],[2.3299,48.86013],[2.32991,48.86013],[2.33291,48.85935],[2.33245,48.85851],[2.33327,48.85826],[2.33325,48.85824],[2.33324,48.85824],[2.33275,48.85763],[2.33167,48.85631],[2.33115,48.85562],[2.33084,48.8552],[2.3307,48.85496],[2.33046,48.85446],[2.33043,48.85442],[2.32938,48.85274],[2.32931,48.85261],[2.32842,48.85182],[2.32719,48.85163],[2.32687,48.85141],[2.32664,48.85126],[2.32527,48.8507],[2.32414,48.85023],[2.32329,48.84983],[2.3229,48.84963],[2.32213,48.84925],[2.32054,48.84842],[2.32018,48.84823],[2.32008,48.84818],[2.31936,48.84785],[2.31908,48.84773],[2.31804,48.84734],[2.31657,48.84682],[2.3161,48.84666],[2.31373,48.84593],[2.31364,48.84599],[2.31209,48.84698],[2.31177,48.84719],[2.31163,48.84728],[2.31149,48.84737],[2.31126,48.84751],[2.31116,48.84758],[2.31053,48.84799],[2.31038,48.84795],[2.30822,48.84743],[2.30804,48.84739],[2.30734,48.84714],[2.30615,48.8479],[2.30379,48.84941],[2.30096,48.85123],[2.30088,48.85118]]],"type":"Polygon"},"properties":{"surface":4090057.18546976,"perimetre":8099.42488348}},
{"type":"Feature","geometry":{"coordinates":[[[2.41388,48.83357],[2.41401,48.83357],[2.41414,48.83357],[2.41426,48.83357],[2.41439,48.83358],[2.41452,48.83358],[2.41465,48.83359],[2.41477,48.8336],[2.4149,48.83361],[2.41503,48.83362],[2.41526,48.83364],[2.41541,48.83366],[2.41555,48.83367],[2.4157,48.83369],[2.41584,48.83372],[2.41599,48.83374],[2.41613,48.83376],[2.41628,48.83379],[2.41642,48.83382],[2.41656,48.83385],[2.41671,48.83388],[2.41685,48.83392],[2.41699,48.83395],[2.41713,48.83399],[2.41726,48.83402],[2.4174,48.83406],[2.41887,48.83452],[2.42225,48.83569],[2.4219,48.8363],[2.42189,48.83632],[2.42174,48.83658],[2.4217,48.83665],[2.42168,48.83669],[2.42166,48.83673],[2.42164,48.83677],[2.42163,48.83681],[2.42161,48.83686],[2.4216,48.8369],[2.42158,48.83694],[2.42157,48.83698],[2.42156,48.83702],[2.42155,48.83706],[2.42153,48.83714],[2.42153,48.83714],[2.42153,48.83716],[2.42152,48.83722],[2.42129,48.83826],[2.42086,48.83962],[2.42042,48.8405],[2.42023,48.84073],[2.41999,48.84095],[2.41986,48.84107],[2.41957,48.84153],[2.41942,48.84248],[2.41952,48.84267],[2.41953,48.84268],[2.41953,48.84268],[2.41953,48.84269],[2.41954,48.84269],[2.41954,48.84269],[2.41954,48.8427],[2.41954,48.8427],[2.41955,48.84271],[2.41955,48.84271],[2.41955,48.84271],[2.41956,48.84272],[2.41956,48.84272],[2.41957,48.84272],[2.41957,48.84273],[2.41957,48.84273],[2.41958,48.84274],[2.41958,48.84274],[2.41959,48.84274],[2.41959,48.84275],[2.4196,48.84275],[2.4196,48.84275],[2.4196,48.84276],[2.41961,48.84276],[2.41961,48.84276],[2.41962,48.84276],[2.41964,48.84278],[2.41965,48.84278],[2.41966,48.84279],[2.41967,48.8428],[2.41968,48.84281],[2.41969,48.84281],[2.4197,48.84282],[2.41971,48.84283],[2.41972,48.84284],[2.41972,48.84284],[2.41974,48.84286],[2.41975,48.84287],[2.41976,48.84289],[2.41978,48.8429],[2.41979,48.84291],[2.4198,48.84293],[2.41981,48.84294],[2.41982,48.84295],[2.41983,48.84297],[2.41984,48.84298],[2.41985,48.84299],[2.41986,48.84301],[2.41987,48.84302],[2.41987,48.84303],[2.41988,48.84304],[2.41988,48.84305],[2.41989,48.84307],[2.41989,48.84308],[2.4199,48.84309],[2.4199,48.8431],[2.4199,48.84311],[2.41991,48.84312],[2.41991,48.84312],[2.41991,48.84313],[2.41991,48.84314],[2.41991,48.84315],[2.41992,48.84316],[2.41992,48.84317],[2.41992,48.84319],[2.41992,48.8432],[2.41992,48.84322],[2.41992,48.84323],[2.41992,48.84324],[2.41992,48.84326],[2.41992,48.84327],[2.41992,48.84328],[2.41992,48.8433],[2.41991,48.84332],[2.41991,48.84333],[2.41991,48.84335],[2.4199,48.84336],[2.4199,48.84337],[2.4199,48.84339],[2.41989,48.8434],[2.41989,48.84341],[2.41988,48.84343],[2.42011,48.84354],[2.42178,48.84434],[2.422,48.84445],[2.42211,48.8445],[2.4223,48.8444],[2.42234,48.84438],[2.42236,48.84436],[2.42238,48.84435],[2.4224,48.84434],[2.42242,48.84433],[2.42243,48.84431],[2.42245,48.8443],[2.42247,48.84429],[2.42249,48.84427],[2.4225,48.84426],[2.42252,48.84425],[2.42254,48.84423],[2.42255,48.84422],[2.42257,48.8442],[2.42258,48.84419],[2.4226,48.84417],[2.42261,48.84416],[2.42268,48.84409],[2.42272,48.84404],[2.42276,48.844],[2.4228,48.84396],[2.42283,48.84392],[2.42287,48.84388],[2.4229,48.84383],[2.42293,48.84379],[2.42296,48.84374],[2.42299,48.8437],[2.42302,48.84367],[2.42306,48.8436],[2.42312,48.84352],[2.42321,48.84338],[2.42321,48.84338],[2.42367,48.84273],[2.4237,48.84269],[2.42444,48.84203],[2.42451,48.84198],[2.42454,48.84196],[2.42456,48.84195],[2.4248,48.8419],[2.42474,48.84177],[2.42505,48.84173],[2.42756,48.84151],[2.42756,48.84151],[2.42757,48.84151],[2.42759,48.84151],[2.43074,48.84124],[2.43245,48.84109],[2.43353,48.841],[2.43364,48.84099],[2.43368,48.84119],[2.4354,48.84105],[2.43719,48.84089],[2.4372,48.84096],[2.43778,48.84379],[2.4379,48.84437],[2.43794,48.84455],[2.43794,48.84457],[2.43794,48.84457],[2.43951,48.84443],[2.44051,48.84435],[2.44051,48.84435],[2.44052,48.84437],[2.44056,48.84458],[2.44061,48.84485],[2.44062,48.84489],[2.44081,48.84487],[2.44087,48.8452],[2.44087,48.84521],[2.44069,48.84521],[2.4407,48.84527],[2.44077,48.84591],[2.44077,48.84592],[2.44203,48.84588],[2.44284,48.84586],[2.44413,48.84582],[2.44648,48.84575],[2.44653,48.84575],[2.44655,48.84573],[2.44655,48.84573],[2.44655,48.84568],[2.44654,48.84567],[2.44652,48.84554],[2.44643,48.84504],[2.44641,48.84493],[2.44641,48.84493],[2.44653,48.84492],[2.44655,48.84492],[2.44714,48.84486],[2.44784,48.84479],[2.44787,48.84479],[2.44938,48.84464],[2.45075,48.84444],[2.45083,48.84443],[2.45161,48.84431],[2.45162,48.84431],[2.45223,48.84422],[2.45311,48.8441],[2.4535,48.84405],[2.45683,48.84361],[2.45807,48.84345],[2.46059,48.84297],[2.46062,48.84297],[2.46081,48.84293],[2.46099,48.84289],[2.46116,48.84285],[2.46134,48.8428],[2.46152,48.84276],[2.46169,48.84271],[2.46186,48.84266],[2.46204,48.84261],[2.46221,48.84255],[2.46238,48.8425],[2.46239,48.84249],[2.46247,48.84246],[2.46254,48.84244],[2.46271,48.84238],[2.46287,48.84232],[2.4631,48.84223],[2.46311,48.84223],[2.46323,48.84218],[2.46336,48.84213],[2.46348,48.84208],[2.4636,48.84202],[2.46372,48.84197],[2.46384,48.84191],[2.46396,48.84185],[2.46408,48.84179],[2.46419,48.84173],[2.46431,48.84167],[2.46442,48.84161],[2.46444,48.8416],[2.46448,48.84157],[2.46466,48.84146],[2.46483,48.84134],[2.465,48.84122],[2.46517,48.84111],[2.46534,48.84099],[2.4655,48.84086],[2.46566,48.84074],[2.46581,48.84061],[2.46597,48.84048],[2.46612,48.84035],[2.46626,48.84022],[2.46639,48.8401],[2.4664,48.84009],[2.4664,48.84009],[2.46644,48.84005],[2.46647,48.84002],[2.46649,48.83999],[2.46652,48.83997],[2.46654,48.83994],[2.46657,48.83991],[2.46659,48.83988],[2.46659,48.83988],[2.46721,48.83912],[2.46721,48.83912],[2.46724,48.83908],[2.46724,48.83908],[2.46735,48.83898],[2.46834,48.83799],[2.46845,48.83788],[2.46931,48.83711],[2.46934,48.83709],[2.46935,48.83708],[2.46937,48.83706],[2.46939,48.83703],[2.46941,48.83701],[2.46943,48.83699],[2.46945,48.83696],[2.46947,48.83694],[2.46948,48.83692],[2.4695,48.83689],[2.46952,48.83687],[2.46953,48.83684],[2.46955,48.83682],[2.46955,48.83682],[2.46957,48.8368],[2.46958,48.83677],[2.46964,48.83668],[2.46967,48.83663],[2.4697,48.83659],[2.46971,48.83658],[2.46971,48.83657],[2.46972,48.83656],[2.46972,48.83655],[2.46972,48.83654],[2.46973,48.83654],[2.46973,48.83653],[2.46974,48.83652],[2.46974,48.83651],[2.46974,48.8365],[2.46974,48.83649],[2.46975,48.83649],[2.46975,48.83648],[2.46975,48.83647],[2.46975,48.83646],[2.46976,48.83645],[2.46976,48.83644],[2.46976,48.83643],[2.46976,48.83643],[2.46976,48.83643],[2.46976,48.83642],[2.46976,48.83642],[2.46976,48.83641],[2.46976,48.8364],[2.46976,48.83639],[2.46976,48.83638],[2.46976,48.83632],[2.46975,48.83619],[2.46971,48.83556],[2.46953,48.83495],[2.4695,48.83487],[2.46948,48.83482],[2.46946,48.83477],[2.46944,48.83473],[2.46942,48.83468],[2.4694,48.83463],[2.46937,48.83458],[2.46935,48.83454],[2.46935,48.83454],[2.46932,48.83449],[2.46929,48.83445],[2.46926,48.8344],[2.46923,48.83435],[2.4692,48.83431],[2.46917,48.83427],[2.46913,48.83422],[2.46906,48.83413],[2.46903,48.83409],[2.46899,48.83405],[2.46895,48.834],[2.46891,48.83396],[2.46885,48.8339],[2.46882,48.83387],[2.46879,48.83384],[2.46875,48.83381],[2.46872,48.83378],[2.46868,48.83375],[2.46865,48.83372],[2.46858,48.83367],[2.46854,48.83365],[2.46851,48.83362],[2.46847,48.8336],[2.46843,48.83357],[2.46839,48.83355],[2.46836,48.83353],[2.46829,48.83349],[2.46823,48.83345],[2.46816,48.83342],[2.4681,48.83339],[2.46804,48.83335],[2.46794,48.83332],[2.46789,48.8333],[2.46784,48.83328],[2.46779,48.83326],[2.46774,48.83324],[2.46769,48.83322],[2.46673,48.83272],[2.46654,48.8326],[2.46646,48.83255],[2.46641,48.83251],[2.46635,48.83247],[2.4663,48.83243],[2.46625,48.83239],[2.4662,48.83234],[2.46612,48.83228],[2.46606,48.83223],[2.466,48.83218],[2.46595,48.83212],[2.46589,48.83207],[2.46582,48.832],[2.46577,48.83194],[2.46571,48.83187],[2.46566,48.83181],[2.46561,48.83175],[2.46555,48.83169],[2.46551,48.83163],[2.46548,48.83158],[2.46544,48.83153],[2.46544,48.83152],[2.4654,48.83147],[2.46539,48.83145],[2.46537,48.83142],[2.46532,48.83134],[2.46532,48.83133],[2.46529,48.83127],[2.46525,48.8312],[2.46522,48.83114],[2.46519,48.83107],[2.46516,48.831],[2.46514,48.83093],[2.46511,48.83086],[2.46509,48.8308],[2.46507,48.83073],[2.46507,48.83073],[2.46503,48.83059],[2.46466,48.82941],[2.46464,48.82936],[2.46462,48.82924],[2.46453,48.82867],[2.46452,48.82861],[2.46452,48.82853],[2.46454,48.8281],[2.46455,48.82794],[2.46461,48.82763],[2.46461,48.82763],[2.46473,48.8276],[2.46474,48.8276],[2.46476,48.8276],[2.46481,48.82759],[2.46481,48.82759],[2.4649,48.82757],[2.46491,48.82757],[2.46493,48.82757],[2.46495,48.82756],[2.46501,48.82755],[2.46509,48.82754],[2.46523,48.82767],[2.46543,48.82757],[2.46618,48.82733],[2.46618,48.82733],[2.4659,48.82663],[2.46589,48.82661],[2.46588,48.82658],[2.46583,48.82646],[2.46576,48.82628],[2.46576,48.82628],[2.46576,48.82626],[2.4657,48.82609],[2.46567,48.826],[2.46536,48.82501],[2.46536,48.825],[2.46534,48.825],[2.46531,48.825],[2.46526,48.825],[2.46521,48.82499],[2.46515,48.82499],[2.46515,48.82498],[2.46525,48.8245],[2.46525,48.8245],[2.46472,48.82328],[2.46467,48.82327],[2.46436,48.82275],[2.46349,48.82122],[2.46291,48.8202],[2.4628,48.81986],[2.46273,48.81963],[2.46264,48.81934],[2.46252,48.81927],[2.46253,48.81926],[2.4626,48.81921],[2.46281,48.81908],[2.4628,48.81903],[2.4628,48.81903],[2.46212,48.81869],[2.46133,48.81831],[2.46108,48.81818],[2.45977,48.81754],[2.4592,48.81733],[2.45925,48.81724],[2.45876,48.81706],[2.45863,48.81701],[2.45848,48.81701],[2.45715,48.81702],[2.45455,48.81714],[2.45327,48.81724],[2.45321,48.81725],[2.45184,48.81757],[2.45083,48.81781],[2.45052,48.81785],[2.44985,48.81793],[2.44964,48.81796],[2.44762,48.81803],[2.44267,48.81796],[2.44214,48.81798],[2.44164,48.81804],[2.44009,48.81834],[2.44006,48.81834],[2.44004,48.81835],[2.44003,48.81835],[2.44001,48.81835],[2.43999,48.81835],[2.43998,48.81835],[2.43996,48.81836],[2.43994,48.81836],[2.43989,48.81836],[2.43986,48.81836],[2.43983,48.81836],[2.4398,48.81837],[2.4398,48.81837],[2.43975,48.81837],[2.43972,48.81837],[2.43968,48.81837],[2.43965,48.81836],[2.43964,48.81836],[2.43961,48.81836],[2.43958,48.81836],[2.43955,48.81836],[2.43954,48.81836],[2.43951,48.81836],[2.4395,48.81836],[2.43735,48.81822],[2.43739,48.8186],[2.43742,48.81882],[2.43747,48.8191],[2.43741,48.81915],[2.43739,48.81916],[2.43737,48.81917],[2.43736,48.81918],[2.43734,48.81919],[2.43733,48.8192],[2.43731,48.81921],[2.4373,48.81922],[2.43728,48.81923],[2.43727,48.81923],[2.43725,48.81924],[2.43723,48.81925],[2.43721,48.81926],[2.43718,48.81927],[2.43715,48.81929],[2.43714,48.8193],[2.43709,48.81932],[2.43704,48.81934],[2.43701,48.81935],[2.43698,48.81936],[2.43696,48.81937],[2.43693,48.81938],[2.43693,48.81938],[2.43691,48.81938],[2.43688,48.81939],[2.43687,48.8194],[2.4368,48.81942],[2.43672,48.81944],[2.4366,48.81948],[2.43654,48.81949],[2.43649,48.81951],[2.43645,48.81952],[2.43642,48.81953],[2.43638,48.81954],[2.43634,48.81954],[2.4363,48.81955],[2.43626,48.81956],[2.43621,48.81957],[2.43618,48.81957],[2.43615,48.81958],[2.43612,48.81958],[2.43609,48.81959],[2.43606,48.81959],[2.43603,48.81959],[2.436,48.8196],[2.43597,48.8196],[2.43594,48.8196],[2.43518,48.81965],[2.43518,48.81965],[2.43518,48.81965],[2.43518,48.81965],[2.43517,48.81965],[2.43517,48.81965],[2.43517,48.81965],[2.43517,48.81965],[2.43516,48.81965],[2.43516,48.81965],[2.43516,48.81965],[2.43516,48.81965],[2.43515,48.81965],[2.43515,48.81965],[2.43515,48.81965],[2.43514,48.81965],[2.43514,48.81965],[2.43514,48.81965],[2.43513,48.81965],[2.43513,48.81965],[2.43513,48.81965],[2.43513,48.81965],[2.43512,48.81964],[2.43512,48.81964],[2.43512,48.81964],[2.43512,48.81964],[2.43511,48.81964],[2.43511,48.81964],[2.43511,48.81964],[2.43511,48.81964],[2.43511,48.81964],[2.4351,48.81964],[2.4351,48.81964],[2.4351,48.81964],[2.43509,48.81964],[2.43509,48.81964],[2.43509,48.81964],[2.43509,48.81964],[2.43509,48.81964],[2.43503,48.81962],[2.435,48.81961],[2.43498,48.8196],[2.43496,48.8196],[2.43495,48.8196],[2.43494,48.81959],[2.43493,48.81959],[2.43492,48.81958],[2.43491,48.81958],[2.43489,48.81958],[2.43488,48.81957],[2.43487,48.81957],[2.43486,48.81956],[2.43485,48.81956],[2.43484,48.81955],[2.43483,48.81955],[2.43482,48.81954],[2.4345,48.81937],[2.43432,48.81939],[2.43418,48.81928],[2.4343,48.82016],[2.433,48.82106],[2.43248,48.82142],[2.43289,48.82169],[2.43262,48.8219],[2.43219,48.82162],[2.43037,48.82288],[2.43054,48.82307],[2.43069,48.82323],[2.43033,48.82337],[2.43013,48.82344],[2.42998,48.82349],[2.42984,48.82354],[2.42969,48.82358],[2.42954,48.82363],[2.42939,48.82367],[2.42907,48.82375],[2.42891,48.8238],[2.42874,48.82383],[2.42858,48.82387],[2.42841,48.8239],[2.42818,48.82395],[2.42797,48.82399],[2.42775,48.82402],[2.42753,48.82406],[2.42731,48.82409],[2.4271,48.82412],[2.42673,48.82416],[2.42649,48.82419],[2.42624,48.82421],[2.426,48.82423],[2.42575,48.82424],[2.4256,48.82425],[2.4254,48.82426],[2.42516,48.82426],[2.42491,48.82427],[2.42467,48.82427],[2.42442,48.82427],[2.42418,48.82426],[2.42394,48.82426],[2.42381,48.82425],[2.42369,48.82425],[2.42345,48.82424],[2.42281,48.82421],[2.42273,48.8242],[2.42253,48.82419],[2.4221,48.82417],[2.42138,48.82414],[2.42089,48.82413],[2.42078,48.82413],[2.42068,48.82413],[2.42058,48.82413],[2.42048,48.82413],[2.42037,48.82413],[2.42027,48.82413],[2.42017,48.82414],[2.42007,48.82414],[2.42002,48.82415],[2.41997,48.82415],[2.41986,48.82416],[2.41979,48.82417],[2.41971,48.82418],[2.41964,48.82419],[2.41956,48.8242],[2.41949,48.82421],[2.41918,48.82427],[2.41902,48.8243],[2.41884,48.82434],[2.41875,48.82437],[2.41865,48.82439],[2.41856,48.82441],[2.41826,48.82449],[2.4181,48.82453],[2.41788,48.82458],[2.41767,48.82463],[2.41755,48.82466],[2.41744,48.82468],[2.41734,48.8247],[2.41734,48.8247],[2.41723,48.82472],[2.41707,48.82474],[2.41693,48.82476],[2.41679,48.82478],[2.4167,48.82479],[2.41661,48.8248],[2.41652,48.82481],[2.41644,48.82482],[2.41635,48.82483],[2.41619,48.82484],[2.41603,48.82485],[2.41588,48.82485],[2.41572,48.82486],[2.41557,48.82486],[2.41505,48.82486],[2.41479,48.82485],[2.41469,48.82485],[2.4146,48.82485],[2.41451,48.82484],[2.41442,48.82483],[2.41433,48.82483],[2.41417,48.82481],[2.41407,48.82481],[2.41406,48.82481],[2.41397,48.8248],[2.41387,48.8248],[2.41356,48.82479],[2.41346,48.82479],[2.41335,48.82479],[2.4132,48.82479],[2.41308,48.82479],[2.41296,48.8248],[2.41284,48.8248],[2.41252,48.82482],[2.41234,48.82484],[2.41228,48.82484],[2.41216,48.82485],[2.41193,48.82488],[2.41187,48.82488],[2.41178,48.8249],[2.41176,48.8249],[2.41163,48.82491],[2.41148,48.82494],[2.41148,48.82494],[2.41122,48.82498],[2.41104,48.82501],[2.41086,48.82504],[2.41075,48.82506],[2.41068,48.82508],[2.41061,48.82509],[2.41053,48.82511],[2.41046,48.82513],[2.41039,48.82515],[2.41032,48.82517],[2.41025,48.82519],[2.41015,48.82522],[2.41007,48.82525],[2.40999,48.82528],[2.40991,48.8253],[2.40983,48.82534],[2.40975,48.82537],[2.40967,48.8254],[2.40959,48.82543],[2.4094,48.82552],[2.40926,48.82558],[2.40912,48.82565],[2.40898,48.82572],[2.40877,48.82583],[2.40863,48.8259],[2.4085,48.82598],[2.40837,48.82606],[2.40824,48.82613],[2.40778,48.82642],[2.40754,48.82658],[2.40734,48.82673],[2.40721,48.82682],[2.40709,48.82691],[2.407,48.82699],[2.40697,48.82701],[2.40663,48.82727],[2.40663,48.82728],[2.4064,48.82744],[2.40593,48.8278],[2.40545,48.82815],[2.40531,48.82825],[2.40517,48.82835],[2.40503,48.82845],[2.40488,48.82854],[2.40474,48.82863],[2.40459,48.82872],[2.40444,48.82881],[2.4043,48.82888],[2.40423,48.82892],[2.40415,48.82896],[2.40407,48.829],[2.40405,48.82901],[2.40398,48.82904],[2.4039,48.82908],[2.40362,48.8292],[2.40334,48.82932],[2.40311,48.82941],[2.40292,48.82949],[2.40291,48.82949],[2.40267,48.82958],[2.40249,48.82965],[2.40243,48.82963],[2.40203,48.82952],[2.40166,48.82941],[2.40149,48.82937],[2.4013,48.82931],[2.40092,48.8292],[2.39906,48.82868],[2.39572,48.82773],[2.39466,48.82756],[2.39462,48.82756],[2.39435,48.82751],[2.39357,48.82717],[2.39347,48.82713],[2.39332,48.82706],[2.3925,48.82671],[2.3918,48.8264],[2.39171,48.82636],[2.39151,48.82628],[2.3915,48.82627],[2.39138,48.82622],[2.39129,48.82618],[2.39114,48.82611],[2.39026,48.82573],[2.39026,48.82573],[2.39026,48.82573],[2.39021,48.82576],[2.38906,48.82656],[2.38853,48.82693],[2.38759,48.82758],[2.38728,48.82781],[2.3872,48.82787],[2.38707,48.82797],[2.38693,48.82806],[2.38693,48.82806],[2.38682,48.82816],[2.3867,48.82826],[2.38658,48.82836],[2.38646,48.82847],[2.38635,48.82856],[2.38622,48.82867],[2.38611,48.82877],[2.38599,48.82887],[2.38587,48.82897],[2.38575,48.82908],[2.38563,48.82917],[2.38551,48.82928],[2.3854,48.82938],[2.38528,48.82948],[2.38516,48.82958],[2.38504,48.82968],[2.38504,48.82968],[2.38491,48.82979],[2.38478,48.82989],[2.38465,48.83],[2.38453,48.8301],[2.38445,48.83016],[2.38439,48.83019],[2.38442,48.83021],[2.38332,48.83107],[2.38284,48.83145],[2.38101,48.8329],[2.38099,48.83291],[2.37893,48.83449],[2.37846,48.83488],[2.37708,48.83601],[2.37698,48.8361],[2.37491,48.83801],[2.37483,48.83809],[2.37481,48.83811],[2.3736,48.83921],[2.37309,48.83967],[2.37255,48.84007],[2.37241,48.84017],[2.37212,48.84039],[2.37058,48.84153],[2.36918,48.84255],[2.36846,48.84309],[2.36603,48.84493],[2.36484,48.84584],[2.36443,48.84614],[2.36537,48.8467],[2.36538,48.8467],[2.36548,48.84677],[2.36549,48.84677],[2.36555,48.8468],[2.36556,48.84681],[2.36561,48.84684],[2.36565,48.84686],[2.36568,48.84688],[2.36569,48.84689],[2.36569,48.84689],[2.36594,48.84704],[2.36597,48.84705],[2.36612,48.84714],[2.36614,48.84715],[2.36615,48.84716],[2.3665,48.84737],[2.36652,48.84741],[2.36731,48.84918],[2.36731,48.84918],[2.36799,48.85068],[2.36803,48.85076],[2.36839,48.85155],[2.36842,48.85161],[2.36842,48.85162],[2.36857,48.85195],[2.3686,48.852],[2.3686,48.85201],[2.36861,48.85203],[2.36861,48.85203],[2.36864,48.85208],[2.36867,48.85216],[2.36874,48.8523],[2.3688,48.85244],[2.36881,48.85245],[2.36887,48.85259],[2.36908,48.85303],[2.36908,48.85304],[2.3691,48.85309],[2.36913,48.85315],[2.36914,48.85316],[2.36934,48.85318],[2.37028,48.85326],[2.3703,48.85326],[2.37031,48.85326],[2.37032,48.85326],[2.37032,48.85326],[2.37035,48.85325],[2.37037,48.85324],[2.37038,48.85324],[2.37038,48.85324],[2.37039,48.85324],[2.3704,48.85323],[2.37091,48.85291],[2.3713,48.85268],[2.37136,48.85265],[2.3714,48.85263],[2.37144,48.85261],[2.37151,48.85258],[2.37174,48.85248],[2.37182,48.85245],[2.37185,48.85244],[2.37189,48.85242],[2.37197,48.8524],[2.37355,48.85193],[2.37379,48.85187],[2.37485,48.8516],[2.37777,48.85089],[2.37851,48.85071],[2.37882,48.85063],[2.3794,48.85055],[2.38012,48.85045],[2.38157,48.85039],[2.38378,48.85021],[2.38434,48.85013],[2.38949,48.84935],[2.3901,48.84926],[2.39337,48.84876],[2.39436,48.84861],[2.39533,48.84847],[2.39592,48.84838],[2.39651,48.84833],[2.39695,48.84829],[2.39736,48.84826],[2.39762,48.84823],[2.3978,48.84822],[2.39867,48.84814],[2.39886,48.84812],[2.39912,48.8481],[2.39926,48.84809],[2.39941,48.84807],[2.39945,48.84807],[2.40345,48.84772],[2.40408,48.84766],[2.40627,48.84745],[2.40631,48.84744],[2.40633,48.84744],[2.40773,48.84733],[2.40801,48.84731],[2.40945,48.84719],[2.40956,48.84718],[2.41043,48.8471],[2.41064,48.84708],[2.41098,48.84705],[2.4111,48.84704],[2.41116,48.84703],[2.41128,48.84702],[2.41157,48.847],[2.41171,48.84699],[2.41334,48.84685],[2.41361,48.84682],[2.41364,48.84682],[2.41394,48.84679],[2.41414,48.84678],[2.41449,48.84675],[2.41457,48.84674],[2.41529,48.84667],[2.41548,48.84666],[2.41599,48.84661],[2.41592,48.84624],[2.41592,48.84624],[2.41588,48.84602],[2.41586,48.84592],[2.41574,48.84534],[2.41572,48.84525],[2.41569,48.84511],[2.41536,48.84404],[2.41525,48.84366],[2.41514,48.84331],[2.41513,48.84328],[2.4151,48.84319],[2.41488,48.84247],[2.41481,48.84226],[2.41478,48.84216],[2.41469,48.84186],[2.41461,48.84162],[2.41451,48.8413],[2.41451,48.84129],[2.41429,48.84054],[2.41357,48.83809],[2.41351,48.83788],[2.41332,48.83737],[2.41326,48.8372],[2.4131,48.83678],[2.41305,48.83665],[2.41293,48.83631],[2.41286,48.83613],[2.41255,48.8353],[2.41252,48.83522],[2.41249,48.83514],[2.41244,48.835],[2.41241,48.83492],[2.4123,48.83462],[2.41227,48.83455],[2.41212,48.83445],[2.41206,48.83441],[2.41192,48.83432],[2.4119,48.83431],[2.41155,48.83408],[2.41135,48.83395],[2.41134,48.83394],[2.41131,48.83392],[2.41122,48.83386],[2.41141,48.83382],[2.41158,48.83379],[2.41175,48.83376],[2.41186,48.83375],[2.41192,48.83374],[2.41209,48.83371],[2.41227,48.83369],[2.41244,48.83367],[2.41261,48.83365],[2.41279,48.83363],[2.41296,48.83362],[2.41314,48.8336],[2.41331,48.83359],[2.4135,48.83358],[2.41362,48.83358],[2.41375,48.83357],[2.41388,48.83357]]],"type":"Polygon"},"properties":{"surface":16314782.6372674,"perimetre":24089.6662978}},
{"type":"Feature","geometry":{"coordinates":[[[2.33978,48.88203],[2.33982,48.88202],[2.34158,48.88237],[2.34189,48.88243],[2.34199,48.88245],[2.3439,48.88282],[2.34444,48.88293],[2.34445,48.88293],[2.34451,48.88295],[2.34663,48.88336],[2.34666,48.88336],[2.34666,48.88336],[2.34678,48.88339],[2.34695,48.88342],[2.347,48.88343],[2.34713,48.88344],[2.34724,48.88346],[2.34882,48.88364],[2.34934,48.88371],[2.34951,48.88373],[2.34959,48.88349],[2.34971,48.88222],[2.34983,48.88109],[2.34986,48.88063],[2.34952,48.87969],[2.34952,48.87967],[2.34929,48.87905],[2.3492,48.87855],[2.34911,48.87748],[2.34908,48.87742],[2.34866,48.87663],[2.34832,48.87602],[2.34825,48.87579],[2.34791,48.87402],[2.3479,48.87201],[2.34788,48.8707],[2.34307,48.87149],[2.34004,48.87198],[2.3399,48.87196],[2.33974,48.87193],[2.3371,48.87147],[2.33701,48.87146],[2.33415,48.87097],[2.33208,48.87062],[2.32984,48.87023],[2.32801,48.86992],[2.32801,48.86992],[2.32799,48.86993],[2.32584,48.86956],[2.32584,48.86956],[2.32609,48.87057],[2.32627,48.87127],[2.3265,48.87214],[2.32675,48.87314],[2.32685,48.87328],[2.32697,48.87354],[2.32701,48.87363],[2.32705,48.87374],[2.32703,48.87384],[2.32701,48.87389],[2.32694,48.87418],[2.32658,48.87558],[2.32685,48.87563],[2.32695,48.87785],[2.32695,48.8779],[2.32695,48.87798],[2.32702,48.87962],[2.32702,48.87964],[2.32706,48.88082],[2.32712,48.88213],[2.32718,48.88348],[2.3273,48.8835],[2.32743,48.88352],[2.32756,48.88355],[2.32773,48.88359],[2.32784,48.88361],[2.32814,48.88371],[2.32835,48.88385],[2.32852,48.88395],[2.32913,48.88435],[2.3292,48.8844],[2.32926,48.88444],[2.32944,48.88455],[2.32971,48.88449],[2.33047,48.88431],[2.33055,48.88429],[2.33212,48.88392],[2.33244,48.88385],[2.33247,48.88384],[2.3325,48.88383],[2.3326,48.8838],[2.33269,48.88377],[2.33285,48.88372],[2.33489,48.88311],[2.33497,48.88309],[2.33695,48.8825],[2.33705,48.88247],[2.33715,48.88244],[2.3372,48.88242],[2.3373,48.8824],[2.3373,48.8824],[2.33782,48.88231],[2.33789,48.8823],[2.33805,48.88228],[2.3395,48.88207],[2.33959,48.88206],[2.3396,48.88206],[2.33968,48.88204],[2.33978,48.88203]]],"type":"Polygon"},"properties":{"surface":2178303.27487137,"perimetre":6471.5882901}}]}